<?xml version="1.0" encoding="UTF-8"?>
<gpx version="1.1" creator="Globe Link example" xmlns="http://www.topografix.com/GPX/1/1">
  <metadata><name>Alpine crossing Oberstdorf – Meran</name><time>2026-01-01T00:00:00Z</time></metadata>
  <trk>
    <name>Alpine crossing Oberstdorf – Meran</name>
    <trkseg>
      <trkpt lat="47.408471" lon="10.278313"><time>2024-07-08T06:30:00Z</time></trkpt>
      <trkpt lat="47.409346" lon="10.281405"><time>2024-07-08T06:37:29Z</time></trkpt>
      <trkpt lat="47.411028" lon="10.285546"><time>2024-07-08T06:44:58Z</time></trkpt>
      <trkpt lat="47.407620" lon="10.283071"><time>2024-07-08T06:52:27Z</time></trkpt>
      <trkpt lat="47.405714" lon="10.282549"><time>2024-07-08T06:59:56Z</time></trkpt>
      <trkpt lat="47.401277" lon="10.278735"><time>2024-07-08T07:07:25Z</time></trkpt>
      <trkpt lat="47.397088" lon="10.275244"><time>2024-07-08T07:14:54Z</time></trkpt>
      <trkpt lat="47.396809" lon="10.276837"><time>2024-07-08T07:22:23Z</time></trkpt>
      <trkpt lat="47.395621" lon="10.277247"><time>2024-07-08T07:29:52Z</time></trkpt>
      <trkpt lat="47.398218" lon="10.282579"><time>2024-07-08T07:37:21Z</time></trkpt>
      <trkpt lat="47.398504" lon="10.284905"><time>2024-07-08T07:44:50Z</time></trkpt>
      <trkpt lat="47.398708" lon="10.287126"><time>2024-07-08T07:52:19Z</time></trkpt>
      <trkpt lat="47.397992" lon="10.288150"><time>2024-07-08T07:59:48Z</time></trkpt>
      <trkpt lat="47.395874" lon="10.287351"><time>2024-07-08T08:07:17Z</time></trkpt>
      <trkpt lat="47.389839" lon="10.281460"><time>2024-07-08T08:14:46Z</time></trkpt>
      <trkpt lat="47.386901" lon="10.279596"><time>2024-07-08T08:22:15Z</time></trkpt>
      <trkpt lat="47.386532" lon="10.281072"><time>2024-07-08T08:29:45Z</time></trkpt>
      <trkpt lat="47.387754" lon="10.284615"><time>2024-07-08T08:37:14Z</time></trkpt>
      <trkpt lat="47.388066" lon="10.286976"><time>2024-07-08T08:44:43Z</time></trkpt>
      <trkpt lat="47.388885" lon="10.289995"><time>2024-07-08T08:52:12Z</time></trkpt>
      <trkpt lat="47.390725" lon="10.294342"><time>2024-07-08T08:59:41Z</time></trkpt>
      <trkpt lat="47.386173" lon="10.290380"><time>2024-07-08T09:07:10Z</time></trkpt>
      <trkpt lat="47.385255" lon="10.291141"><time>2024-07-08T09:14:39Z</time></trkpt>
      <trkpt lat="47.379624" lon="10.285776"><time>2024-07-08T09:22:08Z</time></trkpt>
      <trkpt lat="47.375982" lon="10.282997"><time>2024-07-08T09:29:37Z</time></trkpt>
      <trkpt lat="47.374368" lon="10.282853"><time>2024-07-08T09:37:06Z</time></trkpt>
      <trkpt lat="47.375239" lon="10.285941"><time>2024-07-08T09:44:35Z</time></trkpt>
      <trkpt lat="47.378200" lon="10.291745"><time>2024-07-08T09:52:04Z</time></trkpt>
      <trkpt lat="47.377637" lon="10.292968"><time>2024-07-08T09:59:33Z</time></trkpt>
      <trkpt lat="47.378899" lon="10.296564"><time>2024-07-08T10:07:02Z</time></trkpt>
      <trkpt lat="47.377263" lon="10.296392"><time>2024-07-08T10:14:31Z</time></trkpt>
      <trkpt lat="47.373082" lon="10.292912"><time>2024-07-08T10:22:00Z</time></trkpt>
      <trkpt lat="47.369686" lon="10.290452"><time>2024-07-08T10:29:30Z</time></trkpt>
      <trkpt lat="47.365058" lon="10.286390"><time>2024-07-08T10:36:59Z</time></trkpt>
      <trkpt lat="47.363558" lon="10.286396"><time>2024-07-08T10:44:28Z</time></trkpt>
      <trkpt lat="47.364336" lon="10.289362"><time>2024-07-08T10:51:57Z</time></trkpt>
      <trkpt lat="47.367210" lon="10.295053"><time>2024-07-08T10:59:26Z</time></trkpt>
      <trkpt lat="47.367776" lon="10.297744"><time>2024-07-08T11:06:55Z</time></trkpt>
      <trkpt lat="47.367454" lon="10.299281"><time>2024-07-08T11:14:24Z</time></trkpt>
      <trkpt lat="47.366416" lon="10.299886"><time>2024-07-08T11:21:53Z</time></trkpt>
      <trkpt lat="47.362610" lon="10.296893"><time>2024-07-08T11:29:22Z</time></trkpt>
      <trkpt lat="47.358231" lon="10.293155"><time>2024-07-08T11:36:51Z</time></trkpt>
      <trkpt lat="47.356573" lon="10.292955"><time>2024-07-08T11:44:20Z</time></trkpt>
      <trkpt lat="47.354843" lon="10.292661"><time>2024-07-08T11:51:49Z</time></trkpt>
      <trkpt lat="47.353855" lon="10.293331"><time>2024-07-08T11:59:18Z</time></trkpt>
      <trkpt lat="47.356309" lon="10.298477"><time>2024-07-08T12:06:47Z</time></trkpt>
      <trkpt lat="47.357467" lon="10.301937"><time>2024-07-08T12:14:16Z</time></trkpt>
      <trkpt lat="47.358494" lon="10.305227"><time>2024-07-08T12:21:46Z</time></trkpt>
      <trkpt lat="47.356159" lon="10.304147"><time>2024-07-08T12:29:15Z</time></trkpt>
      <trkpt lat="47.351399" lon="10.299914"><time>2024-07-08T12:36:44Z</time></trkpt>
      <trkpt lat="47.349561" lon="10.299479"><time>2024-07-08T12:44:13Z</time></trkpt>
      <trkpt lat="47.343866" lon="10.294030"><time>2024-07-08T12:51:42Z</time></trkpt>
      <trkpt lat="47.343368" lon="10.295338"><time>2024-07-08T12:59:11Z</time></trkpt>
      <trkpt lat="47.344799" lon="10.299154"><time>2024-07-08T13:06:40Z</time></trkpt>
      <trkpt lat="47.344459" lon="10.300666"><time>2024-07-08T13:14:09Z</time></trkpt>
      <trkpt lat="47.346755" lon="10.305607"><time>2024-07-08T13:21:38Z</time></trkpt>
      <trkpt lat="47.345341" lon="10.305724"><time>2024-07-08T13:29:07Z</time></trkpt>
      <trkpt lat="47.345287" lon="10.307608"><time>2024-07-08T13:36:36Z</time></trkpt>
      <trkpt lat="47.342114" lon="10.305438"><time>2024-07-08T13:44:05Z</time></trkpt>
      <trkpt lat="47.337629" lon="10.301563"><time>2024-07-08T13:51:34Z</time></trkpt>
      <trkpt lat="47.339126" lon="10.305464"><time>2024-07-08T13:59:03Z</time></trkpt>
      <trkpt lat="47.338535" lon="10.308474"><time>2024-07-08T14:06:32Z</time></trkpt>
      <trkpt lat="47.339561" lon="10.313586"><time>2024-07-08T14:14:01Z</time></trkpt>
      <trkpt lat="47.337286" lon="10.314407"><time>2024-07-08T14:21:31Z</time></trkpt>
      <trkpt lat="47.333646" lon="10.313454"><time>2024-07-08T14:29:00Z</time></trkpt>
      <trkpt lat="47.329049" lon="10.311255"><time>2024-07-08T14:36:29Z</time></trkpt>
      <trkpt lat="47.326634" lon="10.311894"><time>2024-07-08T14:43:58Z</time></trkpt>
      <trkpt lat="47.325021" lon="10.313576"><time>2024-07-08T14:51:27Z</time></trkpt>
      <trkpt lat="47.323531" lon="10.315416"><time>2024-07-08T14:58:56Z</time></trkpt>
      <trkpt lat="47.325210" lon="10.321378"><time>2024-07-08T15:06:25Z</time></trkpt>
      <trkpt lat="47.324477" lon="10.324203"><time>2024-07-08T15:13:54Z</time></trkpt>
      <trkpt lat="47.326240" lon="10.330274"><time>2024-07-08T15:21:23Z</time></trkpt>
      <trkpt lat="47.324060" lon="10.331218"><time>2024-07-08T15:28:52Z</time></trkpt>
      <trkpt lat="47.321472" lon="10.331632"><time>2024-07-08T15:36:21Z</time></trkpt>
      <trkpt lat="47.316733" lon="10.329250"><time>2024-07-08T15:43:50Z</time></trkpt>
      <trkpt lat="47.311585" lon="10.326336"><time>2024-07-08T15:51:19Z</time></trkpt>
      <trkpt lat="47.310007" lon="10.328063"><time>2024-07-08T15:58:48Z</time></trkpt>
      <trkpt lat="47.310817" lon="10.332893"><time>2024-07-08T16:06:17Z</time></trkpt>
      <trkpt lat="47.310002" lon="10.335613"><time>2024-07-08T16:13:47Z</time></trkpt>
      <trkpt lat="47.312380" lon="10.342482"><time>2024-07-08T16:21:16Z</time></trkpt>
      <trkpt lat="47.311300" lon="10.344857"><time>2024-07-08T16:28:45Z</time></trkpt>
      <trkpt lat="47.309084" lon="10.345755"><time>2024-07-09T06:36:14Z</time></trkpt>
      <trkpt lat="47.305256" lon="10.344556"><time>2024-07-09T06:43:43Z</time></trkpt>
      <trkpt lat="47.303160" lon="10.345609"><time>2024-07-09T06:51:12Z</time></trkpt>
      <trkpt lat="47.297738" lon="10.342339"><time>2024-07-09T06:58:41Z</time></trkpt>
      <trkpt lat="47.296257" lon="10.344192"><time>2024-07-09T07:06:10Z</time></trkpt>
      <trkpt lat="47.296687" lon="10.348530"><time>2024-07-09T07:13:39Z</time></trkpt>
      <trkpt lat="47.299266" lon="10.355661"><time>2024-07-09T07:21:08Z</time></trkpt>
      <trkpt lat="47.297936" lon="10.357710"><time>2024-07-09T07:28:37Z</time></trkpt>
      <trkpt lat="47.298802" lon="10.362614"><time>2024-07-09T07:36:06Z</time></trkpt>
      <trkpt lat="47.296995" lon="10.364043"><time>2024-07-09T07:43:35Z</time></trkpt>
      <trkpt lat="47.294315" lon="10.364338"><time>2024-07-09T07:51:04Z</time></trkpt>
      <trkpt lat="47.289901" lon="10.362378"><time>2024-07-09T07:58:33Z</time></trkpt>
      <trkpt lat="47.286561" lon="10.361815"><time>2024-07-09T08:06:02Z</time></trkpt>
      <trkpt lat="47.283015" lon="10.360982"><time>2024-07-09T08:13:32Z</time></trkpt>
      <trkpt lat="47.283464" lon="10.365345"><time>2024-07-09T08:21:01Z</time></trkpt>
      <trkpt lat="47.284445" lon="10.370399"><time>2024-07-09T08:28:30Z</time></trkpt>
      <trkpt lat="47.287046" lon="10.377558"><time>2024-07-09T08:35:59Z</time></trkpt>
      <trkpt lat="47.286985" lon="10.381257"><time>2024-07-09T08:43:28Z</time></trkpt>
      <trkpt lat="47.282412" lon="10.379091"><time>2024-07-09T08:50:57Z</time></trkpt>
      <trkpt lat="47.278779" lon="10.378146"><time>2024-07-09T08:58:26Z</time></trkpt>
      <trkpt lat="47.274727" lon="10.376657"><time>2024-07-09T09:05:55Z</time></trkpt>
      <trkpt lat="47.271290" lon="10.375967"><time>2024-07-09T09:13:24Z</time></trkpt>
      <trkpt lat="47.270301" lon="10.378459"><time>2024-07-09T09:20:53Z</time></trkpt>
      <trkpt lat="47.270690" lon="10.382743"><time>2024-07-09T09:28:22Z</time></trkpt>
      <trkpt lat="47.270874" lon="10.386761"><time>2024-07-09T09:35:51Z</time></trkpt>
      <trkpt lat="47.271104" lon="10.390838"><time>2024-07-09T09:43:20Z</time></trkpt>
      <trkpt lat="47.272025" lon="10.395814"><time>2024-07-09T09:50:49Z</time></trkpt>
      <trkpt lat="47.269679" lon="10.396542"><time>2024-07-09T09:58:18Z</time></trkpt>
      <trkpt lat="47.266534" lon="10.396233"><time>2024-07-09T10:05:48Z</time></trkpt>
      <trkpt lat="47.263480" lon="10.396041"><time>2024-07-09T10:13:17Z</time></trkpt>
      <trkpt lat="47.259283" lon="10.394363"><time>2024-07-09T10:20:46Z</time></trkpt>
      <trkpt lat="47.257060" lon="10.395251"><time>2024-07-09T10:28:15Z</time></trkpt>
      <trkpt lat="47.257480" lon="10.399576"><time>2024-07-09T10:35:44Z</time></trkpt>
      <trkpt lat="47.258831" lon="10.405111"><time>2024-07-09T10:43:13Z</time></trkpt>
      <trkpt lat="47.257951" lon="10.407744"><time>2024-07-09T10:50:42Z</time></trkpt>
      <trkpt lat="47.260122" lon="10.414345"><time>2024-07-09T10:58:11Z</time></trkpt>
      <trkpt lat="47.257522" lon="10.414743"><time>2024-07-09T11:05:40Z</time></trkpt>
      <trkpt lat="47.254044" lon="10.414000"><time>2024-07-09T11:13:09Z</time></trkpt>
      <trkpt lat="47.249604" lon="10.412006"><time>2024-07-09T11:20:38Z</time></trkpt>
      <trkpt lat="47.248677" lon="10.414580"><time>2024-07-09T11:28:07Z</time></trkpt>
      <trkpt lat="47.249807" lon="10.420489"><time>2024-07-09T11:35:36Z</time></trkpt>
      <trkpt lat="47.248819" lon="10.423645"><time>2024-07-09T11:43:05Z</time></trkpt>
      <trkpt lat="47.248456" lon="10.427612"><time>2024-07-09T11:50:34Z</time></trkpt>
      <trkpt lat="47.243160" lon="10.425168"><time>2024-07-09T11:58:03Z</time></trkpt>
      <trkpt lat="47.238966" lon="10.424155"><time>2024-07-09T12:05:33Z</time></trkpt>
      <trkpt lat="47.235840" lon="10.424532"><time>2024-07-09T12:13:02Z</time></trkpt>
      <trkpt lat="47.233790" lon="10.426308"><time>2024-07-09T12:20:31Z</time></trkpt>
      <trkpt lat="47.234262" lon="10.431360"><time>2024-07-09T12:28:00Z</time></trkpt>
      <trkpt lat="47.234525" lon="10.436142"><time>2024-07-09T12:35:29Z</time></trkpt>
      <trkpt lat="47.235462" lon="10.441801"><time>2024-07-09T12:42:58Z</time></trkpt>
      <trkpt lat="47.235773" lon="10.446645"><time>2024-07-09T12:50:27Z</time></trkpt>
      <trkpt lat="47.233623" lon="10.448290"><time>2024-07-09T12:57:56Z</time></trkpt>
      <trkpt lat="47.230801" lon="10.449061"><time>2024-07-09T13:05:25Z</time></trkpt>
      <trkpt lat="47.225577" lon="10.446710"><time>2024-07-09T13:12:54Z</time></trkpt>
      <trkpt lat="47.224604" lon="10.449885"><time>2024-07-09T13:20:23Z</time></trkpt>
      <trkpt lat="47.221959" lon="10.450886"><time>2024-07-09T13:27:52Z</time></trkpt>
      <trkpt lat="47.220540" lon="10.453482"><time>2024-07-09T13:35:21Z</time></trkpt>
      <trkpt lat="47.221991" lon="10.459809"><time>2024-07-09T13:42:50Z</time></trkpt>
      <trkpt lat="47.223354" lon="10.466020"><time>2024-07-09T13:50:19Z</time></trkpt>
      <trkpt lat="47.223222" lon="10.470288"><time>2024-07-09T13:57:49Z</time></trkpt>
      <trkpt lat="47.220452" lon="10.471127"><time>2024-07-09T14:05:18Z</time></trkpt>
      <trkpt lat="47.218993" lon="10.473670"><time>2024-07-09T14:12:47Z</time></trkpt>
      <trkpt lat="47.215218" lon="10.473203"><time>2024-07-09T14:20:16Z</time></trkpt>
      <trkpt lat="47.210148" lon="10.471052"><time>2024-07-09T14:27:45Z</time></trkpt>
      <trkpt lat="47.208382" lon="10.473197"><time>2024-07-09T14:35:14Z</time></trkpt>
      <trkpt lat="47.207205" lon="10.476106"><time>2024-07-09T14:42:43Z</time></trkpt>
      <trkpt lat="47.208408" lon="10.482111"><time>2024-07-09T14:50:12Z</time></trkpt>
      <trkpt lat="47.210189" lon="10.488866"><time>2024-07-09T14:57:41Z</time></trkpt>
      <trkpt lat="47.209732" lon="10.492712"><time>2024-07-09T15:05:10Z</time></trkpt>
      <trkpt lat="47.209333" lon="10.496633"><time>2024-07-09T15:12:39Z</time></trkpt>
      <trkpt lat="47.203666" lon="10.493706"><time>2024-07-09T15:20:08Z</time></trkpt>
      <trkpt lat="47.199046" lon="10.492139"><time>2024-07-09T15:27:37Z</time></trkpt>
      <trkpt lat="47.198372" lon="10.495704"><time>2024-07-09T15:35:06Z</time></trkpt>
      <trkpt lat="47.195331" lon="10.496190"><time>2024-07-09T15:42:35Z</time></trkpt>
      <trkpt lat="47.194241" lon="10.499213"><time>2024-07-09T15:50:04Z</time></trkpt>
      <trkpt lat="47.196598" lon="10.506718"><time>2024-07-09T15:57:34Z</time></trkpt>
      <trkpt lat="47.196091" lon="10.510498"><time>2024-07-09T16:05:03Z</time></trkpt>
      <trkpt lat="47.197330" lon="10.516548"><time>2024-07-09T16:12:32Z</time></trkpt>
      <trkpt lat="47.196545" lon="10.519968"><time>2024-07-09T16:20:01Z</time></trkpt>
      <trkpt lat="47.192507" lon="10.519159"><time>2024-07-09T16:27:30Z</time></trkpt>
      <trkpt lat="47.187804" lon="10.517485"><time>2024-07-10T06:34:59Z</time></trkpt>
      <trkpt lat="47.183073" lon="10.515775"><time>2024-07-10T06:42:28Z</time></trkpt>
      <trkpt lat="47.181663" lon="10.518381"><time>2024-07-10T06:49:57Z</time></trkpt>
      <trkpt lat="47.181157" lon="10.522164"><time>2024-07-10T06:57:26Z</time></trkpt>
      <trkpt lat="47.184152" lon="10.530497"><time>2024-07-10T07:04:55Z</time></trkpt>
      <trkpt lat="47.184456" lon="10.535333"><time>2024-07-10T07:12:24Z</time></trkpt>
      <trkpt lat="47.184889" lon="10.540335"><time>2024-07-10T07:19:53Z</time></trkpt>
      <trkpt lat="47.181360" lon="10.540188"><time>2024-07-10T07:27:22Z</time></trkpt>
      <trkpt lat="47.177321" lon="10.539378"><time>2024-07-10T07:34:51Z</time></trkpt>
      <trkpt lat="47.174888" lon="10.540655"><time>2024-07-10T07:42:20Z</time></trkpt>
      <trkpt lat="47.172016" lon="10.541361"><time>2024-07-10T07:49:50Z</time></trkpt>
      <trkpt lat="47.169938" lon="10.543099"><time>2024-07-10T07:57:19Z</time></trkpt>
      <trkpt lat="47.169929" lon="10.547528"><time>2024-07-10T08:04:48Z</time></trkpt>
      <trkpt lat="47.171158" lon="10.553565"><time>2024-07-10T08:12:17Z</time></trkpt>
      <trkpt lat="47.171925" lon="10.559002"><time>2024-07-10T08:19:46Z</time></trkpt>
      <trkpt lat="47.170037" lon="10.560988"><time>2024-07-10T08:27:15Z</time></trkpt>
      <trkpt lat="47.168685" lon="10.563670"><time>2024-07-10T08:34:44Z</time></trkpt>
      <trkpt lat="47.164454" lon="10.562610"><time>2024-07-10T08:42:13Z</time></trkpt>
      <trkpt lat="47.159280" lon="10.560324"><time>2024-07-10T08:49:42Z</time></trkpt>
      <trkpt lat="47.159584" lon="10.565159"><time>2024-07-10T08:57:11Z</time></trkpt>
      <trkpt lat="47.162098" lon="10.570656"><time>2024-07-10T09:04:40Z</time></trkpt>
      <trkpt lat="47.162586" lon="10.573518"><time>2024-07-10T09:12:09Z</time></trkpt>
      <trkpt lat="47.162580" lon="10.575740"><time>2024-07-10T09:19:38Z</time></trkpt>
      <trkpt lat="47.160443" lon="10.575189"><time>2024-07-10T09:27:07Z</time></trkpt>
      <trkpt lat="47.155355" lon="10.570803"><time>2024-07-10T09:34:36Z</time></trkpt>
      <trkpt lat="47.153925" lon="10.571172"><time>2024-07-10T09:42:05Z</time></trkpt>
      <trkpt lat="47.152818" lon="10.571961"><time>2024-07-10T09:49:35Z</time></trkpt>
      <trkpt lat="47.153307" lon="10.574825"><time>2024-07-10T09:57:04Z</time></trkpt>
      <trkpt lat="47.153311" lon="10.577060"><time>2024-07-10T10:04:33Z</time></trkpt>
      <trkpt lat="47.154623" lon="10.580993"><time>2024-07-10T10:12:02Z</time></trkpt>
      <trkpt lat="47.155150" lon="10.583907"><time>2024-07-10T10:19:31Z</time></trkpt>
      <trkpt lat="47.153709" lon="10.584261"><time>2024-07-10T10:27:00Z</time></trkpt>
      <trkpt lat="47.150773" lon="10.582673"><time>2024-07-10T10:34:29Z</time></trkpt>
      <trkpt lat="47.148473" lon="10.581912"><time>2024-07-10T10:41:58Z</time></trkpt>
      <trkpt lat="47.146432" lon="10.581487"><time>2024-07-10T10:49:27Z</time></trkpt>
      <trkpt lat="47.145038" lon="10.581903"><time>2024-07-10T10:56:56Z</time></trkpt>
      <trkpt lat="47.144583" lon="10.583539"><time>2024-07-10T11:04:25Z</time></trkpt>
      <trkpt lat="47.146893" lon="10.588771"><time>2024-07-10T11:11:54Z</time></trkpt>
      <trkpt lat="47.149061" lon="10.593817"><time>2024-07-10T11:19:23Z</time></trkpt>
      <trkpt lat="47.147383" lon="10.593865"><time>2024-07-10T11:26:52Z</time></trkpt>
      <trkpt lat="47.147715" lon="10.596524"><time>2024-07-10T11:34:21Z</time></trkpt>
      <trkpt lat="47.145475" lon="10.595841"><time>2024-07-10T11:41:51Z</time></trkpt>
      <trkpt lat="47.141535" lon="10.592948"><time>2024-07-10T11:49:20Z</time></trkpt>
      <trkpt lat="47.138600" lon="10.591360"><time>2024-07-10T11:56:49Z</time></trkpt>
      <trkpt lat="47.136615" lon="10.591008"><time>2024-07-10T12:04:18Z</time></trkpt>
      <trkpt lat="47.136383" lon="10.592934"><time>2024-07-10T12:11:47Z</time></trkpt>
      <trkpt lat="47.140019" lon="10.599890"><time>2024-07-10T12:19:16Z</time></trkpt>
      <trkpt lat="47.140359" lon="10.602560"><time>2024-07-10T12:26:45Z</time></trkpt>
      <trkpt lat="47.142190" lon="10.607169"><time>2024-07-10T12:34:14Z</time></trkpt>
      <trkpt lat="47.141262" lon="10.608190"><time>2024-07-10T12:41:43Z</time></trkpt>
      <trkpt lat="47.136519" lon="10.604253"><time>2024-07-10T12:49:12Z</time></trkpt>
      <trkpt lat="47.132981" lon="10.601881"><time>2024-07-10T12:56:41Z</time></trkpt>
      <trkpt lat="47.131810" lon="10.602588"><time>2024-07-10T13:04:10Z</time></trkpt>
      <trkpt lat="47.130021" lon="10.602490"><time>2024-07-10T13:11:39Z</time></trkpt>
      <trkpt lat="47.129061" lon="10.603471"><time>2024-07-10T13:19:08Z</time></trkpt>
      <trkpt lat="47.130750" lon="10.607895"><time>2024-07-10T13:26:37Z</time></trkpt>
      <trkpt lat="47.132513" lon="10.612416"><time>2024-07-10T13:34:06Z</time></trkpt>
      <trkpt lat="47.135160" lon="10.618084"><time>2024-07-10T13:41:36Z</time></trkpt>
      <trkpt lat="47.133379" lon="10.617997"><time>2024-07-10T13:49:05Z</time></trkpt>
      <trkpt lat="47.128355" lon="10.613695"><time>2024-07-10T13:56:34Z</time></trkpt>
      <trkpt lat="47.126844" lon="10.613960"><time>2024-07-10T14:04:03Z</time></trkpt>
      <trkpt lat="47.124531" lon="10.613180"><time>2024-07-10T14:11:32Z</time></trkpt>
      <trkpt lat="47.122484" lon="10.612748"><time>2024-07-10T14:19:01Z</time></trkpt>
      <trkpt lat="47.122307" lon="10.614746"><time>2024-07-10T14:26:30Z</time></trkpt>
      <trkpt lat="47.124732" lon="10.620126"><time>2024-07-10T14:33:59Z</time></trkpt>
      <trkpt lat="47.125151" lon="10.622900"><time>2024-07-10T14:41:28Z</time></trkpt>
      <trkpt lat="47.125144" lon="10.625119"><time>2024-07-10T14:48:57Z</time></trkpt>
      <trkpt lat="47.126484" lon="10.629089"><time>2024-07-10T14:56:26Z</time></trkpt>
      <trkpt lat="47.122451" lon="10.626075"><time>2024-07-10T15:03:55Z</time></trkpt>
      <trkpt lat="47.118534" lon="10.623210"><time>2024-07-10T15:11:24Z</time></trkpt>
      <trkpt lat="47.117012" lon="10.623461"><time>2024-07-10T15:18:53Z</time></trkpt>
      <trkpt lat="47.114481" lon="10.622399"><time>2024-07-10T15:26:22Z</time></trkpt>
      <trkpt lat="47.116576" lon="10.627351"><time>2024-07-10T15:33:52Z</time></trkpt>
      <trkpt lat="47.118281" lon="10.631796"><time>2024-07-10T15:41:21Z</time></trkpt>
      <trkpt lat="47.118088" lon="10.633773"><time>2024-07-10T15:48:50Z</time></trkpt>
      <trkpt lat="47.118512" lon="10.636553"><time>2024-07-10T15:56:19Z</time></trkpt>
      <trkpt lat="47.117061" lon="10.636894"><time>2024-07-10T16:03:48Z</time></trkpt>
      <trkpt lat="47.113808" lon="10.634894"><time>2024-07-10T16:11:17Z</time></trkpt>
      <trkpt lat="47.111303" lon="10.633865"><time>2024-07-10T16:18:46Z</time></trkpt>
      <trkpt lat="47.111278" lon="10.636062"><time>2024-07-10T16:26:15Z</time></trkpt>
      <trkpt lat="47.112284" lon="10.641701"><time>2024-07-11T06:33:44Z</time></trkpt>
      <trkpt lat="47.110735" lon="10.644019"><time>2024-07-11T06:41:13Z</time></trkpt>
      <trkpt lat="47.110533" lon="10.648088"><time>2024-07-11T06:48:42Z</time></trkpt>
      <trkpt lat="47.104701" lon="10.644838"><time>2024-07-11T06:56:11Z</time></trkpt>
      <trkpt lat="47.100221" lon="10.643346"><time>2024-07-11T07:03:40Z</time></trkpt>
      <trkpt lat="47.096464" lon="10.642793"><time>2024-07-11T07:11:09Z</time></trkpt>
      <trkpt lat="47.094933" lon="10.645135"><time>2024-07-11T07:18:38Z</time></trkpt>
      <trkpt lat="47.092837" lon="10.646741"><time>2024-07-11T07:26:07Z</time></trkpt>
      <trkpt lat="47.094870" lon="10.653717"><time>2024-07-11T07:33:37Z</time></trkpt>
      <trkpt lat="47.094133" lon="10.657089"><time>2024-07-11T07:41:06Z</time></trkpt>
      <trkpt lat="47.093498" lon="10.660596"><time>2024-07-11T07:48:35Z</time></trkpt>
      <trkpt lat="47.090889" lon="10.661536"><time>2024-07-11T07:56:04Z</time></trkpt>
      <trkpt lat="47.085183" lon="10.658449"><time>2024-07-11T08:03:33Z</time></trkpt>
      <trkpt lat="47.081654" lon="10.658194"><time>2024-07-11T08:11:02Z</time></trkpt>
      <trkpt lat="47.076781" lon="10.656190"><time>2024-07-11T08:18:31Z</time></trkpt>
      <trkpt lat="47.073795" lon="10.656640"><time>2024-07-11T08:26:00Z</time></trkpt>
      <trkpt lat="47.075575" lon="10.663286"><time>2024-07-11T08:33:29Z</time></trkpt>
      <trkpt lat="47.074252" lon="10.665897"><time>2024-07-11T08:40:58Z</time></trkpt>
      <trkpt lat="47.075649" lon="10.672045"><time>2024-07-11T08:48:27Z</time></trkpt>
      <trkpt lat="47.075638" lon="10.676363"><time>2024-07-11T08:55:56Z</time></trkpt>
      <trkpt lat="47.072502" lon="10.676618"><time>2024-07-11T09:03:25Z</time></trkpt>
      <trkpt lat="47.067590" lon="10.674564"><time>2024-07-11T09:10:54Z</time></trkpt>
      <trkpt lat="47.063377" lon="10.673418"><time>2024-07-11T09:18:23Z</time></trkpt>
      <trkpt lat="47.059416" lon="10.672601"><time>2024-07-11T09:25:53Z</time></trkpt>
      <trkpt lat="47.057700" lon="10.674702"><time>2024-07-11T09:33:22Z</time></trkpt>
      <trkpt lat="47.055099" lon="10.675652"><time>2024-07-11T09:40:51Z</time></trkpt>
      <trkpt lat="47.057033" lon="10.682497"><time>2024-07-11T09:48:20Z</time></trkpt>
      <trkpt lat="47.056573" lon="10.686232"><time>2024-07-11T09:55:49Z</time></trkpt>
      <trkpt lat="47.055852" lon="10.689626"><time>2024-07-11T10:03:18Z</time></trkpt>
      <trkpt lat="47.054663" lon="10.692412"><time>2024-07-11T10:10:47Z</time></trkpt>
      <trkpt lat="47.049621" lon="10.690189"><time>2024-07-11T10:18:16Z</time></trkpt>
      <trkpt lat="47.044995" lon="10.688507"><time>2024-07-11T10:25:45Z</time></trkpt>
      <trkpt lat="47.041549" lon="10.688359"><time>2024-07-11T10:33:14Z</time></trkpt>
      <trkpt lat="47.039650" lon="10.690222"><time>2024-07-11T10:40:43Z</time></trkpt>
      <trkpt lat="47.037714" lon="10.692037"><time>2024-07-11T10:48:12Z</time></trkpt>
      <trkpt lat="47.038806" lon="10.697788"><time>2024-07-11T10:55:41Z</time></trkpt>
      <trkpt lat="47.038943" lon="10.702298"><time>2024-07-11T11:03:10Z</time></trkpt>
      <trkpt lat="47.038115" lon="10.705553"><time>2024-07-11T11:10:39Z</time></trkpt>
      <trkpt lat="47.035938" lon="10.707054"><time>2024-07-11T11:18:08Z</time></trkpt>
      <trkpt lat="47.030941" lon="10.704890"><time>2024-07-11T11:25:38Z</time></trkpt>
      <trkpt lat="47.026398" lon="10.703316"><time>2024-07-11T11:33:07Z</time></trkpt>
      <trkpt lat="47.022224" lon="10.702221"><time>2024-07-11T11:40:36Z</time></trkpt>
      <trkpt lat="47.021304" lon="10.705357"><time>2024-07-11T11:48:05Z</time></trkpt>
      <trkpt lat="47.020087" lon="10.708106"><time>2024-07-11T11:55:34Z</time></trkpt>
      <trkpt lat="47.021216" lon="10.713905"><time>2024-07-11T12:03:03Z</time></trkpt>
      <trkpt lat="47.021851" lon="10.719063"><time>2024-07-11T12:10:32Z</time></trkpt>
      <trkpt lat="47.018914" lon="10.719576"><time>2024-07-11T12:18:01Z</time></trkpt>
      <trkpt lat="47.017050" lon="10.721484"><time>2024-07-11T12:25:30Z</time></trkpt>
      <trkpt lat="47.013899" lon="10.721720"><time>2024-07-11T12:32:59Z</time></trkpt>
      <trkpt lat="47.008807" lon="10.719433"><time>2024-07-11T12:40:28Z</time></trkpt>
      <trkpt lat="47.002723" lon="10.715855"><time>2024-07-11T12:47:57Z</time></trkpt>
      <trkpt lat="47.000412" lon="10.717182"><time>2024-07-11T12:55:26Z</time></trkpt>
      <trkpt lat="47.000921" lon="10.722175"><time>2024-07-11T13:02:55Z</time></trkpt>
      <trkpt lat="47.000421" lon="10.725857"><time>2024-07-11T13:10:24Z</time></trkpt>
      <trkpt lat="47.001344" lon="10.731389"><time>2024-07-11T13:17:54Z</time></trkpt>
      <trkpt lat="46.999910" lon="10.733856"><time>2024-07-11T13:25:23Z</time></trkpt>
      <trkpt lat="46.998890" lon="10.736862"><time>2024-07-11T13:32:52Z</time></trkpt>
      <trkpt lat="46.994905" lon="10.736014"><time>2024-07-11T13:40:21Z</time></trkpt>
      <trkpt lat="46.990468" lon="10.734576"><time>2024-07-11T13:47:50Z</time></trkpt>
      <trkpt lat="46.987963" lon="10.735652"><time>2024-07-11T13:55:19Z</time></trkpt>
      <trkpt lat="46.990025" lon="10.743243"><time>2024-07-11T14:02:48Z</time></trkpt>
      <trkpt lat="46.989023" lon="10.746849"><time>2024-07-11T14:10:17Z</time></trkpt>
      <trkpt lat="46.984782" lon="10.746246"><time>2024-07-11T14:17:46Z</time></trkpt>
      <trkpt lat="46.982688" lon="10.748435"><time>2024-07-11T14:25:15Z</time></trkpt>
      <trkpt lat="46.978000" lon="10.747249"><time>2024-07-11T14:32:44Z</time></trkpt>
      <trkpt lat="46.971472" lon="10.743674"><time>2024-07-11T14:40:13Z</time></trkpt>
      <trkpt lat="46.971028" lon="10.748006"><time>2024-07-11T14:47:42Z</time></trkpt>
      <trkpt lat="46.968570" lon="10.749721"><time>2024-07-11T14:55:11Z</time></trkpt>
      <trkpt lat="46.969229" lon="10.755488"><time>2024-07-11T15:02:40Z</time></trkpt>
      <trkpt lat="46.971098" lon="10.762827"><time>2024-07-11T15:10:09Z</time></trkpt>
      <trkpt lat="46.969750" lon="10.765985"><time>2024-07-11T15:17:39Z</time></trkpt>
      <trkpt lat="46.965003" lon="10.764724"><time>2024-07-11T15:25:08Z</time></trkpt>
      <trkpt lat="46.961471" lon="10.765042"><time>2024-07-11T15:32:37Z</time></trkpt>
      <trkpt lat="46.956781" lon="10.763855"><time>2024-07-11T15:40:06Z</time></trkpt>
      <trkpt lat="46.951999" lon="10.762548"><time>2024-07-11T15:47:35Z</time></trkpt>
      <trkpt lat="46.948971" lon="10.763522"><time>2024-07-11T15:55:04Z</time></trkpt>
      <trkpt lat="46.948583" lon="10.767928"><time>2024-07-11T16:02:33Z</time></trkpt>
      <trkpt lat="46.950201" lon="10.774941"><time>2024-07-11T16:10:02Z</time></trkpt>
      <trkpt lat="46.948437" lon="10.777558"><time>2024-07-11T16:17:31Z</time></trkpt>
      <trkpt lat="46.949125" lon="10.783362"><time>2024-07-11T16:25:00Z</time></trkpt>
      <trkpt lat="46.946004" lon="10.784216"><time>2024-07-12T06:32:29Z</time></trkpt>
      <trkpt lat="46.940367" lon="10.781797"><time>2024-07-12T06:39:58Z</time></trkpt>
      <trkpt lat="46.936366" lon="10.781506"><time>2024-07-12T06:47:27Z</time></trkpt>
      <trkpt lat="46.933022" lon="10.782068"><time>2024-07-12T06:54:56Z</time></trkpt>
      <trkpt lat="46.930134" lon="10.783225"><time>2024-07-12T07:02:25Z</time></trkpt>
      <trkpt lat="46.928074" lon="10.785456"><time>2024-07-12T07:09:55Z</time></trkpt>
      <trkpt lat="46.931257" lon="10.794504"><time>2024-07-12T07:17:24Z</time></trkpt>
      <trkpt lat="46.930993" lon="10.799071"><time>2024-07-12T07:24:53Z</time></trkpt>
      <trkpt lat="46.930586" lon="10.803452"><time>2024-07-12T07:32:22Z</time></trkpt>
      <trkpt lat="46.925161" lon="10.801309"><time>2024-07-12T07:39:51Z</time></trkpt>
      <trkpt lat="46.921245" lon="10.801128"><time>2024-07-12T07:47:20Z</time></trkpt>
      <trkpt lat="46.915629" lon="10.798737"><time>2024-07-12T07:54:49Z</time></trkpt>
      <trkpt lat="46.913656" lon="10.801083"><time>2024-07-12T08:02:18Z</time></trkpt>
      <trkpt lat="46.909624" lon="10.800751"><time>2024-07-12T08:09:47Z</time></trkpt>
      <trkpt lat="46.908523" lon="10.804230"><time>2024-07-12T08:17:16Z</time></trkpt>
      <trkpt lat="46.909836" lon="10.810846"><time>2024-07-12T08:24:45Z</time></trkpt>
      <trkpt lat="46.911611" lon="10.818064"><time>2024-07-12T08:32:14Z</time></trkpt>
      <trkpt lat="46.910336" lon="10.821316"><time>2024-07-12T08:39:43Z</time></trkpt>
      <trkpt lat="46.905785" lon="10.820311"><time>2024-07-12T08:47:12Z</time></trkpt>
      <trkpt lat="46.901032" lon="10.819041"><time>2024-07-12T08:54:41Z</time></trkpt>
      <trkpt lat="46.898406" lon="10.820538"><time>2024-07-12T09:02:10Z</time></trkpt>
      <trkpt lat="46.893202" lon="10.818682"><time>2024-07-12T09:09:40Z</time></trkpt>
      <trkpt lat="46.891130" lon="10.820900"><time>2024-07-12T09:17:09Z</time></trkpt>
      <trkpt lat="46.888658" lon="10.822595"><time>2024-07-12T09:24:38Z</time></trkpt>
      <trkpt lat="46.889008" lon="10.827961"><time>2024-07-12T09:32:07Z</time></trkpt>
      <trkpt lat="46.891189" lon="10.835706"><time>2024-07-12T09:39:36Z</time></trkpt>
      <trkpt lat="46.889361" lon="10.838239"><time>2024-07-12T09:47:05Z</time></trkpt>
      <trkpt lat="46.885388" lon="10.837985"><time>2024-07-12T09:54:34Z</time></trkpt>
      <trkpt lat="46.883534" lon="10.840484"><time>2024-07-12T10:02:03Z</time></trkpt>
      <trkpt lat="46.877691" lon="10.837798"><time>2024-07-12T10:09:32Z</time></trkpt>
      <trkpt lat="46.874066" lon="10.837996"><time>2024-07-12T10:17:01Z</time></trkpt>
      <trkpt lat="46.869498" lon="10.836967"><time>2024-07-12T10:24:30Z</time></trkpt>
      <trkpt lat="46.871213" lon="10.844107"><time>2024-07-12T10:31:59Z</time></trkpt>
      <trkpt lat="46.869303" lon="10.846534"><time>2024-07-12T10:39:28Z</time></trkpt>
      <trkpt lat="46.871960" lon="10.854898"><time>2024-07-12T10:46:57Z</time></trkpt>
      <trkpt lat="46.869652" lon="10.856807"><time>2024-07-12T10:54:26Z</time></trkpt>
      <trkpt lat="46.866349" lon="10.857424"><time>2024-07-12T11:01:56Z</time></trkpt>
      <trkpt lat="46.862513" lon="10.857347"><time>2024-07-12T11:09:25Z</time></trkpt>
      <trkpt lat="46.858707" lon="10.857309"><time>2024-07-12T11:16:54Z</time></trkpt>
      <trkpt lat="46.856304" lon="10.859095"><time>2024-07-12T11:24:23Z</time></trkpt>
      <trkpt lat="46.857181" lon="10.864154"><time>2024-07-12T11:31:52Z</time></trkpt>
      <trkpt lat="46.858456" lon="10.869729"><time>2024-07-12T11:39:21Z</time></trkpt>
      <trkpt lat="46.855818" lon="10.870219"><time>2024-07-12T11:46:50Z</time></trkpt>
      <trkpt lat="46.852035" lon="10.869219"><time>2024-07-12T11:54:19Z</time></trkpt>
      <trkpt lat="46.848165" lon="10.868106"><time>2024-07-12T12:01:48Z</time></trkpt>
      <trkpt lat="46.844465" lon="10.867214"><time>2024-07-12T12:09:17Z</time></trkpt>
      <trkpt lat="46.843192" lon="10.869478"><time>2024-07-12T12:16:46Z</time></trkpt>
      <trkpt lat="46.843644" lon="10.873984"><time>2024-07-12T12:24:15Z</time></trkpt>
      <trkpt lat="46.844932" lon="10.879577"><time>2024-07-12T12:31:44Z</time></trkpt>
      <trkpt lat="46.847573" lon="10.886928"><time>2024-07-12T12:39:13Z</time></trkpt>
      <trkpt lat="46.846206" lon="10.889069"><time>2024-07-12T12:46:42Z</time></trkpt>
      <trkpt lat="46.845019" lon="10.891444"><time>2024-07-12T12:54:11Z</time></trkpt>
      <trkpt lat="46.840627" lon="10.889653"><time>2024-07-12T13:01:41Z</time></trkpt>
      <trkpt lat="46.837108" lon="10.888998"><time>2024-07-12T13:09:10Z</time></trkpt>
      <trkpt lat="46.832786" lon="10.887296"><time>2024-07-12T13:16:39Z</time></trkpt>
      <trkpt lat="46.831801" lon="10.889935"><time>2024-07-12T13:24:08Z</time></trkpt>
      <trkpt lat="46.831257" lon="10.893146"><time>2024-07-12T13:31:37Z</time></trkpt>
      <trkpt lat="46.834734" lon="10.901584"><time>2024-07-12T13:39:06Z</time></trkpt>
      <trkpt lat="46.835448" lon="10.906431"><time>2024-07-12T13:46:35Z</time></trkpt>
      <trkpt lat="46.834364" lon="10.908940"><time>2024-07-12T13:54:04Z</time></trkpt>
      <trkpt lat="46.833357" lon="10.911549"><time>2024-07-12T14:01:33Z</time></trkpt>
      <trkpt lat="46.831283" lon="10.912771"><time>2024-07-12T14:09:02Z</time></trkpt>
      <trkpt lat="46.824774" lon="10.908228"><time>2024-07-12T14:16:31Z</time></trkpt>
      <trkpt lat="46.823606" lon="10.910628"><time>2024-07-12T14:24:00Z</time></trkpt>
      <trkpt lat="46.820811" lon="10.910912"><time>2024-07-12T14:31:29Z</time></trkpt>
      <trkpt lat="46.821199" lon="10.915335"><time>2024-07-12T14:38:58Z</time></trkpt>
      <trkpt lat="46.823556" lon="10.922317"><time>2024-07-12T14:46:27Z</time></trkpt>
      <trkpt lat="46.823474" lon="10.926129"><time>2024-07-12T14:53:57Z</time></trkpt>
      <trkpt lat="46.823774" lon="10.930438"><time>2024-07-12T15:01:26Z</time></trkpt>
      <trkpt lat="46.822410" lon="10.932583"><time>2024-07-12T15:08:55Z</time></trkpt>
      <trkpt lat="46.819812" lon="10.933124"><time>2024-07-12T15:16:24Z</time></trkpt>
      <trkpt lat="46.813871" lon="10.929319"><time>2024-07-12T15:23:53Z</time></trkpt>
      <trkpt lat="46.812066" lon="10.930891"><time>2024-07-12T15:31:22Z</time></trkpt>
      <trkpt lat="46.810100" lon="10.932253"><time>2024-07-12T15:38:51Z</time></trkpt>
      <trkpt lat="46.810126" lon="10.936205"><time>2024-07-12T15:46:20Z</time></trkpt>
      <trkpt lat="46.810783" lon="10.940978"><time>2024-07-12T15:53:49Z</time></trkpt>
      <trkpt lat="46.811836" lon="10.946265"><time>2024-07-12T16:01:18Z</time></trkpt>
      <trkpt lat="46.810875" lon="10.948934"><time>2024-07-12T16:08:47Z</time></trkpt>
      <trkpt lat="46.809149" lon="10.950608"><time>2024-07-12T16:16:16Z</time></trkpt>
      <trkpt lat="46.805462" lon="10.949735"><time>2024-07-12T16:23:45Z</time></trkpt>
      <trkpt lat="46.803454" lon="10.951042"><time>2024-07-13T06:31:14Z</time></trkpt>
      <trkpt lat="46.798757" lon="10.948854"><time>2024-07-13T06:38:43Z</time></trkpt>
      <trkpt lat="46.796936" lon="10.950405"><time>2024-07-13T06:46:12Z</time></trkpt>
      <trkpt lat="46.796976" lon="10.954375"><time>2024-07-13T06:53:42Z</time></trkpt>
      <trkpt lat="46.800610" lon="10.963018"><time>2024-07-13T07:01:11Z</time></trkpt>
      <trkpt lat="46.801903" lon="10.968617"><time>2024-07-13T07:08:40Z</time></trkpt>
      <trkpt lat="46.801180" lon="10.971596"><time>2024-07-13T07:16:09Z</time></trkpt>
      <trkpt lat="46.798017" lon="10.971402"><time>2024-07-13T07:23:38Z</time></trkpt>
      <trkpt lat="46.794362" lon="10.970569"><time>2024-07-13T07:31:07Z</time></trkpt>
      <trkpt lat="46.790500" lon="10.969466"><time>2024-07-13T07:38:36Z</time></trkpt>
      <trkpt lat="46.787790" lon="10.969862"><time>2024-07-13T07:46:05Z</time></trkpt>
      <trkpt lat="46.785386" lon="10.970655"><time>2024-07-13T07:53:34Z</time></trkpt>
      <trkpt lat="46.786565" lon="10.976106"><time>2024-07-13T08:01:03Z</time></trkpt>
      <trkpt lat="46.787393" lon="10.981100"><time>2024-07-13T08:08:32Z</time></trkpt>
      <trkpt lat="46.790674" lon="10.989284"><time>2024-07-13T08:16:01Z</time></trkpt>
      <trkpt lat="46.790541" lon="10.993031"><time>2024-07-13T08:23:30Z</time></trkpt>
      <trkpt lat="46.787223" lon="10.992635"><time>2024-07-13T08:30:59Z</time></trkpt>
      <trkpt lat="46.782754" lon="10.990743"><time>2024-07-13T08:38:28Z</time></trkpt>
      <trkpt lat="46.780907" lon="10.992261"><time>2024-07-13T08:45:58Z</time></trkpt>
      <trkpt lat="46.779429" lon="10.994257"><time>2024-07-13T08:53:27Z</time></trkpt>
      <trkpt lat="46.780330" lon="11.000541"><time>2024-07-13T09:00:56Z</time></trkpt>
      <trkpt lat="46.778812" lon="11.003679"><time>2024-07-13T09:08:25Z</time></trkpt>
      <trkpt lat="46.777648" lon="11.007277"><time>2024-07-13T09:15:54Z</time></trkpt>
      <trkpt lat="46.773997" lon="11.007643"><time>2024-07-13T09:23:23Z</time></trkpt>
      <trkpt lat="46.769522" lon="11.006937"><time>2024-07-13T09:30:52Z</time></trkpt>
      <trkpt lat="46.764717" lon="11.005802"><time>2024-07-13T09:38:21Z</time></trkpt>
      <trkpt lat="46.763368" lon="11.009160"><time>2024-07-13T09:45:50Z</time></trkpt>
      <trkpt lat="46.761456" lon="11.011787"><time>2024-07-13T09:53:19Z</time></trkpt>
      <trkpt lat="46.763010" lon="11.018918"><time>2024-07-13T10:00:48Z</time></trkpt>
      <trkpt lat="46.763231" lon="11.024316"><time>2024-07-13T10:08:17Z</time></trkpt>
      <trkpt lat="46.763668" lon="11.029997"><time>2024-07-13T10:15:46Z</time></trkpt>
      <trkpt lat="46.760243" lon="11.030656"><time>2024-07-13T10:23:15Z</time></trkpt>
      <trkpt lat="46.756227" lon="11.030547"><time>2024-07-13T10:30:44Z</time></trkpt>
      <trkpt lat="46.752513" lon="11.030831"><time>2024-07-13T10:38:13Z</time></trkpt>
      <trkpt lat="46.748430" lon="11.030634"><time>2024-07-13T10:45:43Z</time></trkpt>
      <trkpt lat="46.747273" lon="11.034242"><time>2024-07-13T10:53:12Z</time></trkpt>
      <trkpt lat="46.746732" lon="11.038650"><time>2024-07-13T11:00:41Z</time></trkpt>
      <trkpt lat="46.748186" lon="11.045652"><time>2024-07-13T11:08:10Z</time></trkpt>
      <trkpt lat="46.748634" lon="11.051346"><time>2024-07-13T11:15:39Z</time></trkpt>
      <trkpt lat="46.748277" lon="11.055994"><time>2024-07-13T11:23:08Z</time></trkpt>
      <trkpt lat="46.746370" lon="11.058626"><time>2024-07-13T11:30:37Z</time></trkpt>
      <trkpt lat="46.740914" lon="11.056645"><time>2024-07-13T11:38:06Z</time></trkpt>
      <trkpt lat="46.736167" lon="11.055585"><time>2024-07-13T11:45:35Z</time></trkpt>
      <trkpt lat="46.734304" lon="11.058275"><time>2024-07-13T11:53:04Z</time></trkpt>
      <trkpt lat="46.729629" lon="11.057310"><time>2024-07-13T12:00:33Z</time></trkpt>
      <trkpt lat="46.731020" lon="11.064229"><time>2024-07-13T12:08:02Z</time></trkpt>
      <trkpt lat="46.731581" lon="11.070071"><time>2024-07-13T12:15:31Z</time></trkpt>
      <trkpt lat="46.730493" lon="11.073767"><time>2024-07-13T12:23:00Z</time></trkpt>
      <trkpt lat="46.732294" lon="11.081220"><time>2024-07-13T12:30:29Z</time></trkpt>
      <trkpt lat="46.730022" lon="11.083379"><time>2024-07-13T12:37:59Z</time></trkpt>
      <trkpt lat="46.725214" lon="11.082239"><time>2024-07-13T12:45:28Z</time></trkpt>
      <trkpt lat="46.720978" lon="11.081845"><time>2024-07-13T12:52:57Z</time></trkpt>
      <trkpt lat="46.717406" lon="11.082313"><time>2024-07-13T13:00:26Z</time></trkpt>
      <trkpt lat="46.713264" lon="11.082040"><time>2024-07-13T13:07:55Z</time></trkpt>
      <trkpt lat="46.714123" lon="11.088268"><time>2024-07-13T13:15:24Z</time></trkpt>
      <trkpt lat="46.714882" lon="11.094367"><time>2024-07-13T13:22:53Z</time></trkpt>
      <trkpt lat="46.716565" lon="11.101666"><time>2024-07-13T13:30:22Z</time></trkpt>
      <trkpt lat="46.715859" lon="11.105860"><time>2024-07-13T13:37:51Z</time></trkpt>
      <trkpt lat="46.713439" lon="11.107825"><time>2024-07-13T13:45:20Z</time></trkpt>
      <trkpt lat="46.708669" lon="11.106737"><time>2024-07-13T13:52:49Z</time></trkpt>
      <trkpt lat="46.705043" lon="11.107135"><time>2024-07-13T14:00:18Z</time></trkpt>
      <trkpt lat="46.700638" lon="11.106520"><time>2024-07-13T14:07:47Z</time></trkpt>
      <trkpt lat="46.698593" lon="11.108972"><time>2024-07-13T14:15:16Z</time></trkpt>
      <trkpt lat="46.696946" lon="11.111943"><time>2024-07-13T14:22:45Z</time></trkpt>
      <trkpt lat="46.697179" lon="11.117358"><time>2024-07-13T14:30:14Z</time></trkpt>
      <trkpt lat="46.698157" lon="11.123741"><time>2024-07-13T14:37:44Z</time></trkpt>
      <trkpt lat="46.698184" lon="11.128887"><time>2024-07-13T14:45:13Z</time></trkpt>
      <trkpt lat="46.694886" lon="11.129712"><time>2024-07-13T14:52:42Z</time></trkpt>
      <trkpt lat="46.693010" lon="11.132384"><time>2024-07-13T15:00:11Z</time></trkpt>
      <trkpt lat="46.687630" lon="11.130502"><time>2024-07-13T15:07:40Z</time></trkpt>
      <trkpt lat="46.684095" lon="11.131018"><time>2024-07-13T15:15:09Z</time></trkpt>
      <trkpt lat="46.682059" lon="11.133483"><time>2024-07-13T15:22:38Z</time></trkpt>
      <trkpt lat="46.682003" lon="11.138522"><time>2024-07-13T15:30:07Z</time></trkpt>
      <trkpt lat="46.682271" lon="11.143982"><time>2024-07-13T15:37:36Z</time></trkpt>
      <trkpt lat="46.681465" lon="11.148046"><time>2024-07-13T15:45:05Z</time></trkpt>
      <trkpt lat="46.683150" lon="11.155348"><time>2024-07-13T15:52:34Z</time></trkpt>
      <trkpt lat="46.680427" lon="11.156920"><time>2024-07-13T16:00:03Z</time></trkpt>
      <trkpt lat="46.675596" lon="11.155751"><time>2024-07-13T16:07:32Z</time></trkpt>
      <trkpt lat="46.671149" lon="11.155082"><time>2024-07-13T16:15:01Z</time></trkpt>
      <trkpt lat="46.671000" lon="11.160000"><time>2024-07-13T16:22:30Z</time></trkpt>
    </trkseg>
  </trk>
</gpx>
