<?xml version="1.0" encoding="UTF-8"?>
<gpx version="1.1" creator="Globe Link example" xmlns="http://www.topografix.com/GPX/1/1">
  <metadata><name>Iceland Ring Road</name><time>2026-01-01T00:00:00Z</time></metadata>
  <trk>
    <name>Iceland Ring Road</name>
    <trkseg>
      <trkpt lat="64.146478" lon="-21.941379"><time>2023-06-14T09:00:00Z</time></trkpt>
      <trkpt lat="64.153808" lon="-21.939976"><time>2023-06-14T09:09:59Z</time></trkpt>
      <trkpt lat="64.163719" lon="-21.935219"><time>2023-06-14T09:19:58Z</time></trkpt>
      <trkpt lat="64.168309" lon="-21.937378"><time>2023-06-14T09:29:57Z</time></trkpt>
      <trkpt lat="64.172197" lon="-21.940451"><time>2023-06-14T09:39:56Z</time></trkpt>
      <trkpt lat="64.176560" lon="-21.942905"><time>2023-06-14T09:49:55Z</time></trkpt>
      <trkpt lat="64.182402" lon="-21.943438"><time>2023-06-14T09:59:54Z</time></trkpt>
      <trkpt lat="64.186919" lon="-21.945692"><time>2023-06-14T10:09:53Z</time></trkpt>
      <trkpt lat="64.196461" lon="-21.941414"><time>2023-06-14T10:19:52Z</time></trkpt>
      <trkpt lat="64.206294" lon="-21.936757"><time>2023-06-14T10:29:51Z</time></trkpt>
      <trkpt lat="64.213943" lon="-21.934941"><time>2023-06-14T10:39:50Z</time></trkpt>
      <trkpt lat="64.221467" lon="-21.933286"><time>2023-06-14T10:49:49Z</time></trkpt>
      <trkpt lat="64.227755" lon="-21.933238"><time>2023-06-14T10:59:48Z</time></trkpt>
      <trkpt lat="64.232761" lon="-21.934858"><time>2023-06-14T11:09:47Z</time></trkpt>
      <trkpt lat="64.236802" lon="-21.937731"><time>2023-06-14T11:19:46Z</time></trkpt>
      <trkpt lat="64.240832" lon="-21.940618"><time>2023-06-14T11:29:45Z</time></trkpt>
      <trkpt lat="64.247045" lon="-21.940668"><time>2023-06-14T11:39:44Z</time></trkpt>
      <trkpt lat="64.253327" lon="-21.940629"><time>2023-06-14T11:49:43Z</time></trkpt>
      <trkpt lat="64.262677" lon="-21.936600"><time>2023-06-14T11:59:42Z</time></trkpt>
      <trkpt lat="64.272073" lon="-21.932511"><time>2023-06-14T12:09:41Z</time></trkpt>
      <trkpt lat="64.281359" lon="-21.928567"><time>2023-06-14T12:19:40Z</time></trkpt>
      <trkpt lat="64.285996" lon="-21.930665"><time>2023-06-14T12:29:39Z</time></trkpt>
      <trkpt lat="64.291149" lon="-21.932093"><time>2023-06-14T12:39:38Z</time></trkpt>
      <trkpt lat="64.293276" lon="-21.937455"><time>2023-06-14T12:49:37Z</time></trkpt>
      <trkpt lat="64.297932" lon="-21.939529"><time>2023-06-14T12:59:36Z</time></trkpt>
      <trkpt lat="64.304737" lon="-21.938808"><time>2023-06-14T13:09:35Z</time></trkpt>
      <trkpt lat="64.313963" lon="-21.934941"><time>2023-06-14T13:19:34Z</time></trkpt>
      <trkpt lat="64.323178" lon="-21.931088"><time>2023-06-14T13:29:33Z</time></trkpt>
      <trkpt lat="64.332188" lon="-21.927502"><time>2023-06-14T13:39:32Z</time></trkpt>
      <trkpt lat="64.338810" lon="-21.927020"><time>2023-06-14T13:49:31Z</time></trkpt>
      <trkpt lat="64.345396" lon="-21.926585"><time>2023-06-14T13:59:30Z</time></trkpt>
      <trkpt lat="64.349576" lon="-21.929278"><time>2023-06-14T14:09:29Z</time></trkpt>
      <trkpt lat="64.353375" lon="-21.932465"><time>2023-06-14T14:19:28Z</time></trkpt>
      <trkpt lat="64.356875" lon="-21.936043"><time>2023-06-14T14:29:27Z</time></trkpt>
      <trkpt lat="64.365427" lon="-21.933051"><time>2023-06-14T14:39:26Z</time></trkpt>
      <trkpt lat="64.371399" lon="-21.933415"><time>2023-06-14T14:49:25Z</time></trkpt>
      <trkpt lat="64.382903" lon="-21.926586"><time>2023-06-14T14:59:24Z</time></trkpt>
      <trkpt lat="64.391819" lon="-21.923122"><time>2023-06-14T15:09:23Z</time></trkpt>
      <trkpt lat="64.396798" lon="-21.924776"><time>2023-06-14T15:19:22Z</time></trkpt>
      <trkpt lat="64.403986" lon="-21.923558"><time>2023-06-14T15:29:21Z</time></trkpt>
      <trkpt lat="64.409377" lon="-21.924677"><time>2023-06-14T15:39:20Z</time></trkpt>
      <trkpt lat="64.413619" lon="-21.927288"><time>2023-06-14T15:49:19Z</time></trkpt>
      <trkpt lat="64.416638" lon="-21.931490"><time>2023-06-14T15:59:18Z</time></trkpt>
      <trkpt lat="64.422369" lon="-21.932168"><time>2023-06-14T16:09:17Z</time></trkpt>
      <trkpt lat="64.430285" lon="-21.930002"><time>2023-06-14T16:19:16Z</time></trkpt>
      <trkpt lat="64.441673" lon="-21.923326"><time>2023-06-14T16:29:15Z</time></trkpt>
      <trkpt lat="64.448490" lon="-21.922589"><time>2023-06-14T16:39:14Z</time></trkpt>
      <trkpt lat="64.457296" lon="-21.919268"><time>2023-06-14T16:49:13Z</time></trkpt>
      <trkpt lat="64.461796" lon="-21.921545"><time>2023-06-14T16:59:12Z</time></trkpt>
      <trkpt lat="64.467224" lon="-21.922615"><time>2023-06-14T17:09:11Z</time></trkpt>
      <trkpt lat="64.472312" lon="-21.924128"><time>2023-06-14T17:19:10Z</time></trkpt>
      <trkpt lat="64.474459" lon="-21.929463"><time>2023-06-14T17:29:09Z</time></trkpt>
      <trkpt lat="64.482841" lon="-21.926694"><time>2023-06-14T17:39:08Z</time></trkpt>
      <trkpt lat="64.490037" lon="-21.925465"><time>2023-06-14T17:49:07Z</time></trkpt>
      <trkpt lat="64.500363" lon="-21.920168"><time>2023-06-14T17:59:06Z</time></trkpt>
      <trkpt lat="64.508815" lon="-21.917307"><time>2023-06-14T18:09:05Z</time></trkpt>
      <trkpt lat="64.515051" lon="-21.917327"><time>2023-06-14T18:19:04Z</time></trkpt>
      <trkpt lat="64.522825" lon="-21.915347"><time>2023-06-14T18:29:03Z</time></trkpt>
      <trkpt lat="64.525845" lon="-21.919548"><time>2023-06-14T18:39:02Z</time></trkpt>
      <trkpt lat="64.528268" lon="-21.924525"><time>2023-06-14T18:49:01Z</time></trkpt>
      <trkpt lat="64.536511" lon="-21.921936"><time>2023-06-14T18:59:00Z</time></trkpt>
      <trkpt lat="64.549385" lon="-21.902349"><time>2023-06-15T09:08:59Z</time></trkpt>
      <trkpt lat="64.559461" lon="-21.886401"><time>2023-06-15T09:18:58Z</time></trkpt>
      <trkpt lat="64.567359" lon="-21.873284"><time>2023-06-15T09:28:57Z</time></trkpt>
      <trkpt lat="64.573595" lon="-21.862326"><time>2023-06-15T09:38:56Z</time></trkpt>
      <trkpt lat="64.580295" lon="-21.850766"><time>2023-06-15T09:48:55Z</time></trkpt>
      <trkpt lat="64.586962" lon="-21.839249"><time>2023-06-15T09:58:54Z</time></trkpt>
      <trkpt lat="64.596924" lon="-21.823449"><time>2023-06-15T10:08:53Z</time></trkpt>
      <trkpt lat="64.604647" lon="-21.810559"><time>2023-06-15T10:18:52Z</time></trkpt>
      <trkpt lat="64.618319" lon="-21.789935"><time>2023-06-15T10:28:51Z</time></trkpt>
      <trkpt lat="64.629979" lon="-21.771928"><time>2023-06-15T10:38:50Z</time></trkpt>
      <trkpt lat="64.637979" lon="-21.758677"><time>2023-06-15T10:48:49Z</time></trkpt>
      <trkpt lat="64.648698" lon="-21.741893"><time>2023-06-15T10:58:48Z</time></trkpt>
      <trkpt lat="64.654749" lon="-21.731177"><time>2023-06-15T11:08:47Z</time></trkpt>
      <trkpt lat="64.661405" lon="-21.719673"><time>2023-06-15T11:18:46Z</time></trkpt>
      <trkpt lat="64.666351" lon="-21.710394"><time>2023-06-15T11:28:45Z</time></trkpt>
      <trkpt lat="64.675033" lon="-21.696257"><time>2023-06-15T11:38:44Z</time></trkpt>
      <trkpt lat="64.685373" lon="-21.679965"><time>2023-06-15T11:48:43Z</time></trkpt>
      <trkpt lat="64.698631" lon="-21.659880"><time>2023-06-15T11:58:42Z</time></trkpt>
      <trkpt lat="64.708779" lon="-21.643837"><time>2023-06-15T12:08:41Z</time></trkpt>
      <trkpt lat="64.718211" lon="-21.628725"><time>2023-06-15T12:18:40Z</time></trkpt>
      <trkpt lat="64.726667" lon="-21.614883"><time>2023-06-15T12:28:39Z</time></trkpt>
      <trkpt lat="64.732871" lon="-21.603967"><time>2023-06-15T12:38:38Z</time></trkpt>
      <trkpt lat="64.738283" lon="-21.594082"><time>2023-06-15T12:48:37Z</time></trkpt>
      <trkpt lat="64.745255" lon="-21.582169"><time>2023-06-15T12:58:36Z</time></trkpt>
      <trkpt lat="64.755935" lon="-21.565435"><time>2023-06-15T13:08:35Z</time></trkpt>
      <trkpt lat="64.764604" lon="-21.551315"><time>2023-06-15T13:18:34Z</time></trkpt>
      <trkpt lat="64.778008" lon="-21.531039"><time>2023-06-15T13:28:33Z</time></trkpt>
      <trkpt lat="64.787309" lon="-21.516098"><time>2023-06-15T13:38:32Z</time></trkpt>
      <trkpt lat="64.797435" lon="-21.500085"><time>2023-06-15T13:48:31Z</time></trkpt>
      <trkpt lat="64.806380" lon="-21.485607"><time>2023-06-15T13:58:30Z</time></trkpt>
      <trkpt lat="64.812051" lon="-21.475384"><time>2023-06-15T14:08:29Z</time></trkpt>
      <trkpt lat="64.818696" lon="-21.463895"><time>2023-06-15T14:18:28Z</time></trkpt>
      <trkpt lat="64.827288" lon="-21.449876"><time>2023-06-15T14:28:27Z</time></trkpt>
      <trkpt lat="64.835599" lon="-21.436221"><time>2023-06-15T14:38:26Z</time></trkpt>
      <trkpt lat="64.845737" lon="-21.420192"><time>2023-06-15T14:48:25Z</time></trkpt>
      <trkpt lat="64.856662" lon="-21.403140"><time>2023-06-15T14:58:24Z</time></trkpt>
      <trkpt lat="64.868850" lon="-21.384445"><time>2023-06-15T15:08:23Z</time></trkpt>
      <trkpt lat="64.878967" lon="-21.368442"><time>2023-06-15T15:18:22Z</time></trkpt>
      <trkpt lat="64.885957" lon="-21.356506"><time>2023-06-15T15:28:21Z</time></trkpt>
      <trkpt lat="64.893076" lon="-21.344402"><time>2023-06-15T15:38:20Z</time></trkpt>
      <trkpt lat="64.897163" lon="-21.336238"><time>2023-06-15T15:48:19Z</time></trkpt>
      <trkpt lat="64.906087" lon="-21.321787"><time>2023-06-15T15:58:18Z</time></trkpt>
      <trkpt lat="64.913815" lon="-21.308890"><time>2023-06-15T16:08:17Z</time></trkpt>
      <trkpt lat="64.925114" lon="-21.291352"><time>2023-06-15T16:18:16Z</time></trkpt>
      <trkpt lat="64.936269" lon="-21.274000"><time>2023-06-15T16:28:15Z</time></trkpt>
      <trkpt lat="64.946517" lon="-21.257828"><time>2023-06-15T16:38:14Z</time></trkpt>
      <trkpt lat="64.955799" lon="-21.242912"><time>2023-06-15T16:48:13Z</time></trkpt>
      <trkpt lat="64.966551" lon="-21.226083"><time>2023-06-15T16:58:12Z</time></trkpt>
      <trkpt lat="64.970734" lon="-21.217796"><time>2023-06-15T17:08:11Z</time></trkpt>
      <trkpt lat="64.977870" lon="-21.205668"><time>2023-06-15T17:18:10Z</time></trkpt>
      <trkpt lat="64.984392" lon="-21.194340"><time>2023-06-15T17:28:09Z</time></trkpt>
      <trkpt lat="64.992873" lon="-21.180465"><time>2023-06-15T17:38:08Z</time></trkpt>
      <trkpt lat="65.004628" lon="-21.162333"><time>2023-06-15T17:48:07Z</time></trkpt>
      <trkpt lat="65.016832" lon="-21.143619"><time>2023-06-15T17:58:06Z</time></trkpt>
      <trkpt lat="65.025986" lon="-21.128869"><time>2023-06-15T18:08:05Z</time></trkpt>
      <trkpt lat="65.037125" lon="-21.111538"><time>2023-06-15T18:18:04Z</time></trkpt>
      <trkpt lat="65.044134" lon="-21.099575"><time>2023-06-15T18:28:03Z</time></trkpt>
      <trkpt lat="65.051459" lon="-21.087204"><time>2023-06-15T18:38:02Z</time></trkpt>
      <trkpt lat="65.057077" lon="-21.077051"><time>2023-06-15T18:48:01Z</time></trkpt>
      <trkpt lat="65.067002" lon="-21.061297"><time>2023-06-15T18:58:00Z</time></trkpt>
      <trkpt lat="65.079829" lon="-21.008470"><time>2023-06-16T09:07:59Z</time></trkpt>
      <trkpt lat="65.091599" lon="-20.957015"><time>2023-06-16T09:17:58Z</time></trkpt>
      <trkpt lat="65.103471" lon="-20.905428"><time>2023-06-16T09:27:57Z</time></trkpt>
      <trkpt lat="65.110398" lon="-20.860269"><time>2023-06-16T09:37:56Z</time></trkpt>
      <trkpt lat="65.117090" lon="-20.815416"><time>2023-06-16T09:47:55Z</time></trkpt>
      <trkpt lat="65.127332" lon="-20.765948"><time>2023-06-16T09:57:54Z</time></trkpt>
      <trkpt lat="65.137426" lon="-20.716673"><time>2023-06-16T10:07:53Z</time></trkpt>
      <trkpt lat="65.147458" lon="-20.667478"><time>2023-06-16T10:17:52Z</time></trkpt>
      <trkpt lat="65.159386" lon="-20.615818"><time>2023-06-16T10:27:51Z</time></trkpt>
      <trkpt lat="65.172372" lon="-20.562783"><time>2023-06-16T10:37:50Z</time></trkpt>
      <trkpt lat="65.183658" lon="-20.511958"><time>2023-06-16T10:47:49Z</time></trkpt>
      <trkpt lat="65.194144" lon="-20.462172"><time>2023-06-16T10:57:48Z</time></trkpt>
      <trkpt lat="65.201516" lon="-20.416435"><time>2023-06-16T11:07:47Z</time></trkpt>
      <trkpt lat="65.209485" lon="-20.369923"><time>2023-06-16T11:17:46Z</time></trkpt>
      <trkpt lat="65.217756" lon="-20.323017"><time>2023-06-16T11:27:45Z</time></trkpt>
      <trkpt lat="65.228559" lon="-20.272820"><time>2023-06-16T11:37:44Z</time></trkpt>
      <trkpt lat="65.241223" lon="-20.220204"><time>2023-06-16T11:47:43Z</time></trkpt>
      <trkpt lat="65.253683" lon="-20.167851"><time>2023-06-16T11:57:42Z</time></trkpt>
      <trkpt lat="65.265483" lon="-20.116358"><time>2023-06-16T12:07:41Z</time></trkpt>
      <trkpt lat="65.277037" lon="-20.065185"><time>2023-06-16T12:17:40Z</time></trkpt>
      <trkpt lat="65.287055" lon="-20.016008"><time>2023-06-16T12:27:39Z</time></trkpt>
      <trkpt lat="65.294710" lon="-19.969904"><time>2023-06-16T12:37:38Z</time></trkpt>
      <trkpt lat="65.302120" lon="-19.924118"><time>2023-06-16T12:47:37Z</time></trkpt>
      <trkpt lat="65.309536" lon="-19.878323"><time>2023-06-16T12:57:36Z</time></trkpt>
      <trkpt lat="65.320097" lon="-19.828441"><time>2023-06-16T13:07:35Z</time></trkpt>
      <trkpt lat="65.333917" lon="-19.774321"><time>2023-06-16T13:17:34Z</time></trkpt>
      <trkpt lat="65.344279" lon="-19.724697"><time>2023-06-16T13:27:33Z</time></trkpt>
      <trkpt lat="65.358205" lon="-19.670441"><time>2023-06-16T13:37:32Z</time></trkpt>
      <trkpt lat="65.370093" lon="-19.618832"><time>2023-06-16T13:47:31Z</time></trkpt>
      <trkpt lat="65.380435" lon="-19.569234"><time>2023-06-16T13:57:30Z</time></trkpt>
      <trkpt lat="65.386563" lon="-19.525115"><time>2023-06-16T14:07:29Z</time></trkpt>
      <trkpt lat="65.394256" lon="-19.478960"><time>2023-06-16T14:17:28Z</time></trkpt>
      <trkpt lat="65.402465" lon="-19.432136"><time>2023-06-16T14:27:27Z</time></trkpt>
      <trkpt lat="65.412879" lon="-19.382444"><time>2023-06-16T14:37:26Z</time></trkpt>
      <trkpt lat="65.424805" lon="-19.330786"><time>2023-06-16T14:47:25Z</time></trkpt>
      <trkpt lat="65.439231" lon="-19.275880"><time>2023-06-16T14:57:24Z</time></trkpt>
      <trkpt lat="65.451689" lon="-19.223530"><time>2023-06-16T15:07:23Z</time></trkpt>
      <trkpt lat="65.463231" lon="-19.172374"><time>2023-06-16T15:17:22Z</time></trkpt>
      <trkpt lat="65.470275" lon="-19.127063"><time>2023-06-16T15:27:21Z</time></trkpt>
      <trkpt lat="65.478347" lon="-19.080416"><time>2023-06-16T15:37:20Z</time></trkpt>
      <trkpt lat="65.487910" lon="-19.031830"><time>2023-06-16T15:47:19Z</time></trkpt>
      <trkpt lat="65.496777" lon="-18.984150"><time>2023-06-16T15:57:18Z</time></trkpt>
      <trkpt lat="65.505516" lon="-18.936636"><time>2023-06-16T16:07:17Z</time></trkpt>
      <trkpt lat="65.517684" lon="-18.884664"><time>2023-06-16T16:17:16Z</time></trkpt>
      <trkpt lat="65.528836" lon="-18.834013"><time>2023-06-16T16:27:15Z</time></trkpt>
      <trkpt lat="65.542766" lon="-18.779751"><time>2023-06-16T16:37:14Z</time></trkpt>
      <trkpt lat="65.555799" lon="-18.726655"><time>2023-06-16T16:47:13Z</time></trkpt>
      <trkpt lat="65.565048" lon="-18.678478"><time>2023-06-16T16:57:12Z</time></trkpt>
      <trkpt lat="65.573152" lon="-18.631789"><time>2023-06-16T17:07:11Z</time></trkpt>
      <trkpt lat="65.581037" lon="-18.585385"><time>2023-06-16T17:17:10Z</time></trkpt>
      <trkpt lat="65.587207" lon="-18.541211"><time>2023-06-16T17:27:09Z</time></trkpt>
      <trkpt lat="65.596841" lon="-18.492534"><time>2023-06-16T17:37:08Z</time></trkpt>
      <trkpt lat="65.608841" lon="-18.440780"><time>2023-06-16T17:47:07Z</time></trkpt>
      <trkpt lat="65.622870" lon="-18.386389"><time>2023-06-16T17:57:06Z</time></trkpt>
      <trkpt lat="65.636085" lon="-18.333056"><time>2023-06-16T18:07:05Z</time></trkpt>
      <trkpt lat="65.648248" lon="-18.281091"><time>2023-06-16T18:17:04Z</time></trkpt>
      <trkpt lat="65.657097" lon="-18.233434"><time>2023-06-16T18:27:03Z</time></trkpt>
      <trkpt lat="65.664862" lon="-18.187186"><time>2023-06-16T18:37:02Z</time></trkpt>
      <trkpt lat="65.672754" lon="-18.140773"><time>2023-06-16T18:47:01Z</time></trkpt>
      <trkpt lat="65.683872" lon="-18.090166"><time>2023-06-16T18:57:00Z</time></trkpt>
      <trkpt lat="65.686098" lon="-18.066949"><time>2023-06-17T09:06:59Z</time></trkpt>
      <trkpt lat="65.685294" lon="-18.047671"><time>2023-06-17T09:16:58Z</time></trkpt>
      <trkpt lat="65.686400" lon="-18.025910"><time>2023-06-17T09:26:57Z</time></trkpt>
      <trkpt lat="65.682004" lon="-18.011301"><time>2023-06-17T09:36:56Z</time></trkpt>
      <trkpt lat="65.680690" lon="-17.992686"><time>2023-06-17T09:46:55Z</time></trkpt>
      <trkpt lat="65.677150" lon="-17.976965"><time>2023-06-17T09:56:54Z</time></trkpt>
      <trkpt lat="65.675048" lon="-17.959374"><time>2023-06-17T10:06:53Z</time></trkpt>
      <trkpt lat="65.675292" lon="-17.938734"><time>2023-06-17T10:16:52Z</time></trkpt>
      <trkpt lat="65.677623" lon="-17.915381"><time>2023-06-17T10:26:51Z</time></trkpt>
      <trkpt lat="65.680703" lon="-17.891052"><time>2023-06-17T10:36:50Z</time></trkpt>
      <trkpt lat="65.681582" lon="-17.869587"><time>2023-06-17T10:46:49Z</time></trkpt>
      <trkpt lat="65.678655" lon="-17.853069"><time>2023-06-17T10:56:48Z</time></trkpt>
      <trkpt lat="65.675754" lon="-17.836516"><time>2023-06-17T11:06:47Z</time></trkpt>
      <trkpt lat="65.673741" lon="-17.818810"><time>2023-06-17T11:16:46Z</time></trkpt>
      <trkpt lat="65.671230" lon="-17.801751"><time>2023-06-17T11:26:45Z</time></trkpt>
      <trkpt lat="65.669614" lon="-17.783528"><time>2023-06-17T11:36:44Z</time></trkpt>
      <trkpt lat="65.669932" lon="-17.762792"><time>2023-06-17T11:46:43Z</time></trkpt>
      <trkpt lat="65.673038" lon="-17.738431"><time>2023-06-17T11:56:42Z</time></trkpt>
      <trkpt lat="65.673176" lon="-17.717927"><time>2023-06-17T12:06:41Z</time></trkpt>
      <trkpt lat="65.674700" lon="-17.695623"><time>2023-06-17T12:16:40Z</time></trkpt>
      <trkpt lat="65.673965" lon="-17.676255"><time>2023-06-17T12:26:39Z</time></trkpt>
      <trkpt lat="65.672656" lon="-17.657634"><time>2023-06-17T12:36:38Z</time></trkpt>
      <trkpt lat="65.668339" lon="-17.642923"><time>2023-06-17T12:46:37Z</time></trkpt>
      <trkpt lat="65.666401" lon="-17.625119"><time>2023-06-17T12:56:36Z</time></trkpt>
      <trkpt lat="65.664190" lon="-17.607670"><time>2023-06-17T13:06:35Z</time></trkpt>
      <trkpt lat="65.664318" lon="-17.587180"><time>2023-06-17T13:16:34Z</time></trkpt>
      <trkpt lat="65.666343" lon="-17.564224"><time>2023-06-17T13:26:33Z</time></trkpt>
      <trkpt lat="65.670376" lon="-17.538657"><time>2023-06-17T13:36:32Z</time></trkpt>
      <trkpt lat="65.670218" lon="-17.518539"><time>2023-06-17T13:46:31Z</time></trkpt>
      <trkpt lat="65.667769" lon="-17.501401"><time>2023-06-17T13:56:30Z</time></trkpt>
      <trkpt lat="65.664080" lon="-17.485872"><time>2023-06-17T14:06:29Z</time></trkpt>
      <trkpt lat="65.662138" lon="-17.468074"><time>2023-06-17T14:16:28Z</time></trkpt>
      <trkpt lat="65.660043" lon="-17.450475"><time>2023-06-17T14:26:27Z</time></trkpt>
      <trkpt lat="65.658340" lon="-17.432365"><time>2023-06-17T14:36:26Z</time></trkpt>
      <trkpt lat="65.658740" lon="-17.411522"><time>2023-06-17T14:46:25Z</time></trkpt>
      <trkpt lat="65.661971" lon="-17.386998"><time>2023-06-17T14:56:24Z</time></trkpt>
      <trkpt lat="65.664619" lon="-17.363232"><time>2023-06-17T15:06:23Z</time></trkpt>
      <trkpt lat="65.663092" lon="-17.344893"><time>2023-06-17T15:16:22Z</time></trkpt>
      <trkpt lat="65.661212" lon="-17.327015"><time>2023-06-17T15:26:21Z</time></trkpt>
      <trkpt lat="65.659264" lon="-17.309223"><time>2023-06-17T15:36:20Z</time></trkpt>
      <trkpt lat="65.656143" lon="-17.292957"><time>2023-06-17T15:46:19Z</time></trkpt>
      <trkpt lat="65.654337" lon="-17.274981"><time>2023-06-17T15:56:18Z</time></trkpt>
      <trkpt lat="65.651990" lon="-17.257710"><time>2023-06-17T16:06:17Z</time></trkpt>
      <trkpt lat="65.654714" lon="-17.233846"><time>2023-06-17T16:16:16Z</time></trkpt>
      <trkpt lat="65.656553" lon="-17.211131"><time>2023-06-17T16:26:15Z</time></trkpt>
      <trkpt lat="65.657706" lon="-17.189309"><time>2023-06-17T16:36:14Z</time></trkpt>
      <trkpt lat="65.657334" lon="-17.169469"><time>2023-06-17T16:46:13Z</time></trkpt>
      <trkpt lat="65.658281" lon="-17.147915"><time>2023-06-17T16:56:12Z</time></trkpt>
      <trkpt lat="65.653421" lon="-17.133910"><time>2023-06-17T17:06:11Z</time></trkpt>
      <trkpt lat="65.651581" lon="-17.115979"><time>2023-06-17T17:16:10Z</time></trkpt>
      <trkpt lat="65.647254" lon="-17.101280"><time>2023-06-17T17:26:09Z</time></trkpt>
      <trkpt lat="65.646378" lon="-17.082096"><time>2023-06-17T17:36:08Z</time></trkpt>
      <trkpt lat="65.648959" lon="-17.058416"><time>2023-06-17T17:46:07Z</time></trkpt>
      <trkpt lat="65.649588" lon="-17.037276"><time>2023-06-17T17:56:06Z</time></trkpt>
      <trkpt lat="65.653394" lon="-17.012004"><time>2023-06-17T18:06:05Z</time></trkpt>
      <trkpt lat="65.652511" lon="-16.992829"><time>2023-06-17T18:16:04Z</time></trkpt>
      <trkpt lat="65.650194" lon="-16.975518"><time>2023-06-17T18:26:03Z</time></trkpt>
      <trkpt lat="65.647390" lon="-16.958839"><time>2023-06-17T18:36:02Z</time></trkpt>
      <trkpt lat="65.644611" lon="-16.942129"><time>2023-06-17T18:46:01Z</time></trkpt>
      <trkpt lat="65.646496" lon="-16.919355"><time>2023-06-17T18:56:00Z</time></trkpt>
      <trkpt lat="65.643573" lon="-16.872800"><time>2023-06-18T09:05:59Z</time></trkpt>
      <trkpt lat="65.636181" lon="-16.832055"><time>2023-06-18T09:15:58Z</time></trkpt>
      <trkpt lat="65.630083" lon="-16.789627"><time>2023-06-18T09:25:57Z</time></trkpt>
      <trkpt lat="65.621079" lon="-16.750978"><time>2023-06-18T09:35:56Z</time></trkpt>
      <trkpt lat="65.614269" lon="-16.709475"><time>2023-06-18T09:45:55Z</time></trkpt>
      <trkpt lat="65.603339" lon="-16.673329"><time>2023-06-18T09:55:54Z</time></trkpt>
      <trkpt lat="65.596276" lon="-16.632157"><time>2023-06-18T10:05:53Z</time></trkpt>
      <trkpt lat="65.591355" lon="-16.588198"><time>2023-06-18T10:15:52Z</time></trkpt>
      <trkpt lat="65.588597" lon="-16.541429"><time>2023-06-18T10:25:51Z</time></trkpt>
      <trkpt lat="65.586322" lon="-16.494031"><time>2023-06-18T10:35:50Z</time></trkpt>
      <trkpt lat="65.581253" lon="-16.450266"><time>2023-06-18T10:45:49Z</time></trkpt>
      <trkpt lat="65.573917" lon="-16.409448"><time>2023-06-18T10:55:48Z</time></trkpt>
      <trkpt lat="65.566219" lon="-16.369100"><time>2023-06-18T11:05:47Z</time></trkpt>
      <trkpt lat="65.556929" lon="-16.330822"><time>2023-06-18T11:15:46Z</time></trkpt>
      <trkpt lat="65.546719" lon="-16.293740"><time>2023-06-18T11:25:45Z</time></trkpt>
      <trkpt lat="65.539540" lon="-16.252718"><time>2023-06-18T11:35:44Z</time></trkpt>
      <trkpt lat="65.536885" lon="-16.205814"><time>2023-06-18T11:45:43Z</time></trkpt>
      <trkpt lat="65.532573" lon="-16.161065"><time>2023-06-18T11:55:42Z</time></trkpt>
      <trkpt lat="65.526624" lon="-16.118444"><time>2023-06-18T12:05:41Z</time></trkpt>
      <trkpt lat="65.523456" lon="-16.072208"><time>2023-06-18T12:15:40Z</time></trkpt>
      <trkpt lat="65.515669" lon="-16.031976"><time>2023-06-18T12:25:39Z</time></trkpt>
      <trkpt lat="65.507134" lon="-15.992716"><time>2023-06-18T12:35:38Z</time></trkpt>
      <trkpt lat="65.497917" lon="-15.954343"><time>2023-06-18T12:45:37Z</time></trkpt>
      <trkpt lat="65.489058" lon="-15.915505"><time>2023-06-18T12:55:36Z</time></trkpt>
      <trkpt lat="65.481856" lon="-15.874512"><time>2023-06-18T13:05:35Z</time></trkpt>
      <trkpt lat="65.477820" lon="-15.829404"><time>2023-06-18T13:15:34Z</time></trkpt>
      <trkpt lat="65.474306" lon="-15.783617"><time>2023-06-18T13:25:33Z</time></trkpt>
      <trkpt lat="65.472294" lon="-15.735877"><time>2023-06-18T13:35:32Z</time></trkpt>
      <trkpt lat="65.464692" lon="-15.695405"><time>2023-06-18T13:45:31Z</time></trkpt>
      <trkpt lat="65.460239" lon="-15.650839"><time>2023-06-18T13:55:30Z</time></trkpt>
      <trkpt lat="65.449420" lon="-15.614548"><time>2023-06-18T14:05:29Z</time></trkpt>
      <trkpt lat="65.440780" lon="-15.575426"><time>2023-06-18T14:15:28Z</time></trkpt>
      <trkpt lat="65.433834" lon="-15.534101"><time>2023-06-18T14:25:27Z</time></trkpt>
      <trkpt lat="65.427179" lon="-15.492398"><time>2023-06-18T14:35:26Z</time></trkpt>
      <trkpt lat="65.421182" lon="-15.449839"><time>2023-06-18T14:45:25Z</time></trkpt>
      <trkpt lat="65.416317" lon="-15.405808"><time>2023-06-18T14:55:24Z</time></trkpt>
      <trkpt lat="65.413747" lon="-15.358794"><time>2023-06-18T15:05:23Z</time></trkpt>
      <trkpt lat="65.408297" lon="-15.315524"><time>2023-06-18T15:15:22Z</time></trkpt>
      <trkpt lat="65.402918" lon="-15.272162"><time>2023-06-18T15:25:21Z</time></trkpt>
      <trkpt lat="65.392163" lon="-15.235788"><time>2023-06-18T15:35:20Z</time></trkpt>
      <trkpt lat="65.383591" lon="-15.196577"><time>2023-06-18T15:45:19Z</time></trkpt>
      <trkpt lat="65.376881" lon="-15.154945"><time>2023-06-18T15:55:18Z</time></trkpt>
      <trkpt lat="65.367670" lon="-15.116564"><time>2023-06-18T16:05:17Z</time></trkpt>
      <trkpt lat="65.364022" lon="-15.070952"><time>2023-06-18T16:15:16Z</time></trkpt>
      <trkpt lat="65.361521" lon="-15.023847"><time>2023-06-18T16:25:15Z</time></trkpt>
      <trkpt lat="65.357525" lon="-14.978688"><time>2023-06-18T16:35:14Z</time></trkpt>
      <trkpt lat="65.350157" lon="-14.937911"><time>2023-06-18T16:45:13Z</time></trkpt>
      <trkpt lat="65.343076" lon="-14.896762"><time>2023-06-18T16:55:12Z</time></trkpt>
      <trkpt lat="65.334556" lon="-14.857482"><time>2023-06-18T17:05:11Z</time></trkpt>
      <trkpt lat="65.328047" lon="-14.815588"><time>2023-06-18T17:15:10Z</time></trkpt>
      <trkpt lat="65.317782" lon="-14.778578"><time>2023-06-18T17:25:09Z</time></trkpt>
      <trkpt lat="65.312689" lon="-14.734845"><time>2023-06-18T17:35:08Z</time></trkpt>
      <trkpt lat="65.308390" lon="-14.690078"><time>2023-06-18T17:45:07Z</time></trkpt>
      <trkpt lat="65.303020" lon="-14.646704"><time>2023-06-18T17:55:06Z</time></trkpt>
      <trkpt lat="65.298939" lon="-14.601655"><time>2023-06-18T18:05:05Z</time></trkpt>
      <trkpt lat="65.295763" lon="-14.555428"><time>2023-06-18T18:15:04Z</time></trkpt>
      <trkpt lat="65.287633" lon="-14.515642"><time>2023-06-18T18:25:03Z</time></trkpt>
      <trkpt lat="65.277940" lon="-14.477888"><time>2023-06-18T18:35:02Z</time></trkpt>
      <trkpt lat="65.270227" lon="-14.437560"><time>2023-06-18T18:45:01Z</time></trkpt>
      <trkpt lat="65.264449" lon="-14.394716"><time>2023-06-18T18:55:00Z</time></trkpt>
      <trkpt lat="65.250037" lon="-14.405158"><time>2023-06-19T09:04:59Z</time></trkpt>
      <trkpt lat="65.233720" lon="-14.418078"><time>2023-06-19T09:14:58Z</time></trkpt>
      <trkpt lat="65.218620" lon="-14.429414"><time>2023-06-19T09:24:57Z</time></trkpt>
      <trkpt lat="65.200123" lon="-14.445167"><time>2023-06-19T09:34:56Z</time></trkpt>
      <trkpt lat="65.179665" lon="-14.463468"><time>2023-06-19T09:44:55Z</time></trkpt>
      <trkpt lat="65.161643" lon="-14.478604"><time>2023-06-19T09:54:54Z</time></trkpt>
      <trkpt lat="65.141576" lon="-14.496397"><time>2023-06-19T10:04:53Z</time></trkpt>
      <trkpt lat="65.126743" lon="-14.507387"><time>2023-06-19T10:14:52Z</time></trkpt>
      <trkpt lat="65.113193" lon="-14.516709"><time>2023-06-19T10:24:51Z</time></trkpt>
      <trkpt lat="65.100332" lon="-14.525136"><time>2023-06-19T10:34:50Z</time></trkpt>
      <trkpt lat="65.084781" lon="-14.537058"><time>2023-06-19T10:44:49Z</time></trkpt>
      <trkpt lat="65.065678" lon="-14.553599"><time>2023-06-19T10:54:48Z</time></trkpt>
      <trkpt lat="65.046263" lon="-14.570545"><time>2023-06-19T11:04:47Z</time></trkpt>
      <trkpt lat="65.027191" lon="-14.587046"><time>2023-06-19T11:14:46Z</time></trkpt>
      <trkpt lat="65.008462" lon="-14.603100"><time>2023-06-19T11:24:45Z</time></trkpt>
      <trkpt lat="64.992501" lon="-14.615555"><time>2023-06-19T11:34:44Z</time></trkpt>
      <trkpt lat="64.974843" lon="-14.630218"><time>2023-06-19T11:44:43Z</time></trkpt>
      <trkpt lat="64.962442" lon="-14.638045"><time>2023-06-19T11:54:42Z</time></trkpt>
      <trkpt lat="64.947927" lon="-14.648621"><time>2023-06-19T12:04:41Z</time></trkpt>
      <trkpt lat="64.932597" lon="-14.660257"><time>2023-06-19T12:14:40Z</time></trkpt>
      <trkpt lat="64.915001" lon="-14.674838"><time>2023-06-19T12:24:39Z</time></trkpt>
      <trkpt lat="64.895468" lon="-14.691939"><time>2023-06-19T12:34:38Z</time></trkpt>
      <trkpt lat="64.875022" lon="-14.710225"><time>2023-06-19T12:44:37Z</time></trkpt>
      <trkpt lat="64.856108" lon="-14.726519"><time>2023-06-19T12:54:36Z</time></trkpt>
      <trkpt lat="64.839016" lon="-14.740445"><time>2023-06-19T13:04:35Z</time></trkpt>
      <trkpt lat="64.824894" lon="-14.750511"><time>2023-06-19T13:14:34Z</time></trkpt>
      <trkpt lat="64.808539" lon="-14.763480"><time>2023-06-19T13:24:33Z</time></trkpt>
      <trkpt lat="64.794553" lon="-14.773368"><time>2023-06-19T13:34:32Z</time></trkpt>
      <trkpt lat="64.780596" lon="-14.783218"><time>2023-06-19T13:44:31Z</time></trkpt>
      <trkpt lat="64.761589" lon="-14.799635"><time>2023-06-19T13:54:30Z</time></trkpt>
      <trkpt lat="64.741976" lon="-14.816838"><time>2023-06-19T14:04:29Z</time></trkpt>
      <trkpt lat="64.722278" lon="-14.834152"><time>2023-06-19T14:14:28Z</time></trkpt>
      <trkpt lat="64.704977" lon="-14.848350"><time>2023-06-19T14:24:27Z</time></trkpt>
      <trkpt lat="64.687123" lon="-14.863266"><time>2023-06-19T14:34:26Z</time></trkpt>
      <trkpt lat="64.673742" lon="-14.872369"><time>2023-06-19T14:44:25Z</time></trkpt>
      <trkpt lat="64.659219" lon="-14.882955"><time>2023-06-19T14:54:24Z</time></trkpt>
      <trkpt lat="64.645173" lon="-14.892921"><time>2023-06-19T15:04:23Z</time></trkpt>
      <trkpt lat="64.627340" lon="-14.907811"><time>2023-06-19T15:14:22Z</time></trkpt>
      <trkpt lat="64.609262" lon="-14.923020"><time>2023-06-19T15:24:21Z</time></trkpt>
      <trkpt lat="64.590206" lon="-14.939499"><time>2023-06-19T15:34:20Z</time></trkpt>
      <trkpt lat="64.571810" lon="-14.955120"><time>2023-06-19T15:44:19Z</time></trkpt>
      <trkpt lat="64.553619" lon="-14.970475"><time>2023-06-19T15:54:18Z</time></trkpt>
      <trkpt lat="64.535703" lon="-14.985472"><time>2023-06-19T16:04:17Z</time></trkpt>
      <trkpt lat="64.519758" lon="-14.997907"><time>2023-06-19T16:14:16Z</time></trkpt>
      <trkpt lat="64.506086" lon="-15.007388"><time>2023-06-19T16:24:15Z</time></trkpt>
      <trkpt lat="64.492319" lon="-15.016992"><time>2023-06-19T16:34:14Z</time></trkpt>
      <trkpt lat="64.476774" lon="-15.028907"><time>2023-06-19T16:44:13Z</time></trkpt>
      <trkpt lat="64.459415" lon="-15.043181"><time>2023-06-19T16:54:12Z</time></trkpt>
      <trkpt lat="64.440593" lon="-15.059356"><time>2023-06-19T17:04:11Z</time></trkpt>
      <trkpt lat="64.420447" lon="-15.077252"><time>2023-06-19T17:14:10Z</time></trkpt>
      <trkpt lat="64.400025" lon="-15.095508"><time>2023-06-19T17:24:09Z</time></trkpt>
      <trkpt lat="64.385103" lon="-15.106613"><time>2023-06-19T17:34:08Z</time></trkpt>
      <trkpt lat="64.368192" lon="-15.120303"><time>2023-06-19T17:44:07Z</time></trkpt>
      <trkpt lat="64.354804" lon="-15.129415"><time>2023-06-19T17:54:06Z</time></trkpt>
      <trkpt lat="64.339824" lon="-15.140595"><time>2023-06-19T18:04:05Z</time></trkpt>
      <trkpt lat="64.325171" lon="-15.151351"><time>2023-06-19T18:14:04Z</time></trkpt>
      <trkpt lat="64.305929" lon="-15.168072"><time>2023-06-19T18:24:03Z</time></trkpt>
      <trkpt lat="64.286929" lon="-15.184479"><time>2023-06-19T18:34:02Z</time></trkpt>
      <trkpt lat="64.267329" lon="-15.201665"><time>2023-06-19T18:44:01Z</time></trkpt>
      <trkpt lat="64.251960" lon="-15.213352"><time>2023-06-19T18:54:00Z</time></trkpt>
      <trkpt lat="64.251163" lon="-15.235285"><time>2023-06-20T09:03:59Z</time></trkpt>
      <trkpt lat="64.246043" lon="-15.262837"><time>2023-06-20T09:13:58Z</time></trkpt>
      <trkpt lat="64.239232" lon="-15.292589"><time>2023-06-20T09:23:57Z</time></trkpt>
      <trkpt lat="64.231761" lon="-15.323197"><time>2023-06-20T09:33:56Z</time></trkpt>
      <trkpt lat="64.225241" lon="-15.352570"><time>2023-06-20T09:43:55Z</time></trkpt>
      <trkpt lat="64.216136" lon="-15.385304"><time>2023-06-20T09:53:54Z</time></trkpt>
      <trkpt lat="64.209298" lon="-15.415090"><time>2023-06-20T10:03:53Z</time></trkpt>
      <trkpt lat="64.206867" lon="-15.439146"><time>2023-06-20T10:13:52Z</time></trkpt>
      <trkpt lat="64.203427" lon="-15.464515"><time>2023-06-20T10:23:51Z</time></trkpt>
      <trkpt lat="64.201434" lon="-15.488002"><time>2023-06-20T10:33:50Z</time></trkpt>
      <trkpt lat="64.194526" lon="-15.517879"><time>2023-06-20T10:43:49Z</time></trkpt>
      <trkpt lat="64.189543" lon="-15.545255"><time>2023-06-20T10:53:48Z</time></trkpt>
      <trkpt lat="64.182867" lon="-15.574830"><time>2023-06-20T11:03:47Z</time></trkpt>
      <trkpt lat="64.174622" lon="-15.606444"><time>2023-06-20T11:13:46Z</time></trkpt>
      <trkpt lat="64.167224" lon="-15.636958"><time>2023-06-20T11:23:45Z</time></trkpt>
      <trkpt lat="64.158638" lon="-15.669018"><time>2023-06-20T11:33:44Z</time></trkpt>
      <trkpt lat="64.155275" lon="-15.694286"><time>2023-06-20T11:43:43Z</time></trkpt>
      <trkpt lat="64.151792" lon="-15.719710"><time>2023-06-20T11:53:42Z</time></trkpt>
      <trkpt lat="64.148980" lon="-15.744262"><time>2023-06-20T12:03:41Z</time></trkpt>
      <trkpt lat="64.147048" lon="-15.767671"><time>2023-06-20T12:13:40Z</time></trkpt>
      <trkpt lat="64.139733" lon="-15.798078"><time>2023-06-20T12:23:39Z</time></trkpt>
      <trkpt lat="64.133036" lon="-15.827679"><time>2023-06-20T12:33:38Z</time></trkpt>
      <trkpt lat="64.123055" lon="-15.861552"><time>2023-06-20T12:43:37Z</time></trkpt>
      <trkpt lat="64.116948" lon="-15.890387"><time>2023-06-20T12:53:36Z</time></trkpt>
      <trkpt lat="64.109778" lon="-15.920605"><time>2023-06-20T13:03:35Z</time></trkpt>
      <trkpt lat="64.105127" lon="-15.947548"><time>2023-06-20T13:13:34Z</time></trkpt>
      <trkpt lat="64.103735" lon="-15.970254"><time>2023-06-20T13:23:33Z</time></trkpt>
      <trkpt lat="64.101198" lon="-15.994449"><time>2023-06-20T13:33:32Z</time></trkpt>
      <trkpt lat="64.094355" lon="-16.024242"><time>2023-06-20T13:43:31Z</time></trkpt>
      <trkpt lat="64.089635" lon="-16.051274"><time>2023-06-20T13:53:30Z</time></trkpt>
      <trkpt lat="64.081941" lon="-16.082173"><time>2023-06-20T14:03:29Z</time></trkpt>
      <trkpt lat="64.072429" lon="-16.115435"><time>2023-06-20T14:13:28Z</time></trkpt>
      <trkpt lat="64.065325" lon="-16.145567"><time>2023-06-20T14:23:27Z</time></trkpt>
      <trkpt lat="64.058770" lon="-16.174985"><time>2023-06-20T14:33:26Z</time></trkpt>
      <trkpt lat="64.054913" lon="-16.200896"><time>2023-06-20T14:43:25Z</time></trkpt>
      <trkpt lat="64.052134" lon="-16.225406"><time>2023-06-20T14:53:24Z</time></trkpt>
      <trkpt lat="64.050108" lon="-16.248936"><time>2023-06-20T15:03:23Z</time></trkpt>
      <trkpt lat="64.045900" lon="-16.275303"><time>2023-06-20T15:13:22Z</time></trkpt>
      <trkpt lat="64.038320" lon="-16.306054"><time>2023-06-20T15:23:21Z</time></trkpt>
      <trkpt lat="64.029951" lon="-16.337830"><time>2023-06-20T15:33:20Z</time></trkpt>
      <trkpt lat="64.022597" lon="-16.368288"><time>2023-06-20T15:43:19Z</time></trkpt>
      <trkpt lat="64.016125" lon="-16.397598"><time>2023-06-20T15:53:18Z</time></trkpt>
      <trkpt lat="64.008818" lon="-16.427993"><time>2023-06-20T16:03:17Z</time></trkpt>
      <trkpt lat="64.005192" lon="-16.453603"><time>2023-06-20T16:13:16Z</time></trkpt>
      <trkpt lat="64.001946" lon="-16.478720"><time>2023-06-20T16:23:15Z</time></trkpt>
      <trkpt lat="64.000644" lon="-16.501310"><time>2023-06-20T16:33:14Z</time></trkpt>
      <trkpt lat="63.995496" lon="-16.528899"><time>2023-06-20T16:43:13Z</time></trkpt>
      <trkpt lat="63.987761" lon="-16.559851"><time>2023-06-20T16:53:12Z</time></trkpt>
      <trkpt lat="63.980056" lon="-16.590764"><time>2023-06-20T17:03:11Z</time></trkpt>
      <trkpt lat="63.972640" lon="-16.621302"><time>2023-06-20T17:13:10Z</time></trkpt>
      <trkpt lat="63.965612" lon="-16.651335"><time>2023-06-20T17:23:09Z</time></trkpt>
      <trkpt lat="63.960098" lon="-16.679400"><time>2023-06-20T17:33:08Z</time></trkpt>
      <trkpt lat="63.954484" lon="-16.707593"><time>2023-06-20T17:43:07Z</time></trkpt>
      <trkpt lat="63.951794" lon="-16.731988"><time>2023-06-20T17:53:06Z</time></trkpt>
      <trkpt lat="63.950291" lon="-16.754838"><time>2023-06-20T18:03:05Z</time></trkpt>
      <trkpt lat="63.944986" lon="-16.782631"><time>2023-06-20T18:13:04Z</time></trkpt>
      <trkpt lat="63.938282" lon="-16.812244"><time>2023-06-20T18:23:03Z</time></trkpt>
      <trkpt lat="63.930510" lon="-16.843244"><time>2023-06-20T18:33:02Z</time></trkpt>
      <trkpt lat="63.924153" lon="-16.872404"><time>2023-06-20T18:43:01Z</time></trkpt>
      <trkpt lat="63.918437" lon="-16.900732"><time>2023-06-20T18:53:00Z</time></trkpt>
      <trkpt lat="63.913443" lon="-16.931474"><time>2023-06-21T09:02:59Z</time></trkpt>
      <trkpt lat="63.905847" lon="-16.965599"><time>2023-06-21T09:12:58Z</time></trkpt>
      <trkpt lat="63.897202" lon="-17.001087"><time>2023-06-21T09:22:57Z</time></trkpt>
      <trkpt lat="63.888099" lon="-17.037171"><time>2023-06-21T09:32:56Z</time></trkpt>
      <trkpt lat="63.877420" lon="-17.075304"><time>2023-06-21T09:42:55Z</time></trkpt>
      <trkpt lat="63.865105" lon="-17.115563"><time>2023-06-21T09:52:54Z</time></trkpt>
      <trkpt lat="63.855828" lon="-17.151873"><time>2023-06-21T10:02:53Z</time></trkpt>
      <trkpt lat="63.850492" lon="-17.183060"><time>2023-06-21T10:12:52Z</time></trkpt>
      <trkpt lat="63.843178" lon="-17.216818"><time>2023-06-21T10:22:51Z</time></trkpt>
      <trkpt lat="63.836812" lon="-17.249344"><time>2023-06-21T10:32:50Z</time></trkpt>
      <trkpt lat="63.832491" lon="-17.279212"><time>2023-06-21T10:42:49Z</time></trkpt>
      <trkpt lat="63.822190" lon="-17.316853"><time>2023-06-21T10:52:48Z</time></trkpt>
      <trkpt lat="63.812904" lon="-17.353175"><time>2023-06-21T11:02:47Z</time></trkpt>
      <trkpt lat="63.800586" lon="-17.393438"><time>2023-06-21T11:12:46Z</time></trkpt>
      <trkpt lat="63.791630" lon="-17.429331"><time>2023-06-21T11:22:45Z</time></trkpt>
      <trkpt lat="63.781633" lon="-17.466578"><time>2023-06-21T11:32:44Z</time></trkpt>
      <trkpt lat="63.773848" lon="-17.500947"><time>2023-06-21T11:42:43Z</time></trkpt>
      <trkpt lat="63.767679" lon="-17.533217"><time>2023-06-21T11:52:42Z</time></trkpt>
      <trkpt lat="63.763500" lon="-17.562901"><time>2023-06-21T12:02:41Z</time></trkpt>
      <trkpt lat="63.756718" lon="-17.595967"><time>2023-06-21T12:12:40Z</time></trkpt>
      <trkpt lat="63.748612" lon="-17.630754"><time>2023-06-21T12:22:39Z</time></trkpt>
      <trkpt lat="63.735646" lon="-17.671860"><time>2023-06-21T12:32:38Z</time></trkpt>
      <trkpt lat="63.726172" lon="-17.708427"><time>2023-06-21T12:42:37Z</time></trkpt>
      <trkpt lat="63.715062" lon="-17.747119"><time>2023-06-21T12:52:36Z</time></trkpt>
      <trkpt lat="63.706778" lon="-17.782139"><time>2023-06-21T13:02:35Z</time></trkpt>
      <trkpt lat="63.698852" lon="-17.816693"><time>2023-06-21T13:12:34Z</time></trkpt>
      <trkpt lat="63.693552" lon="-17.847833"><time>2023-06-21T13:22:33Z</time></trkpt>
      <trkpt lat="63.688458" lon="-17.878705"><time>2023-06-21T13:32:32Z</time></trkpt>
      <trkpt lat="63.682581" lon="-17.910595"><time>2023-06-21T13:42:31Z</time></trkpt>
      <trkpt lat="63.671173" lon="-17.949675"><time>2023-06-21T13:52:30Z</time></trkpt>
      <trkpt lat="63.661786" lon="-17.986128"><time>2023-06-21T14:02:29Z</time></trkpt>
      <trkpt lat="63.651658" lon="-18.023545"><time>2023-06-21T14:12:28Z</time></trkpt>
      <trkpt lat="63.641820" lon="-18.060584"><time>2023-06-21T14:22:27Z</time></trkpt>
      <trkpt lat="63.630871" lon="-18.099067"><time>2023-06-21T14:32:26Z</time></trkpt>
      <trkpt lat="63.623848" lon="-18.132448"><time>2023-06-21T14:42:25Z</time></trkpt>
      <trkpt lat="63.620598" lon="-18.160923"><time>2023-06-21T14:52:24Z</time></trkpt>
      <trkpt lat="63.614870" lon="-18.192619"><time>2023-06-21T15:02:23Z</time></trkpt>
      <trkpt lat="63.606260" lon="-18.228062"><time>2023-06-21T15:12:22Z</time></trkpt>
      <trkpt lat="63.595969" lon="-18.265690"><time>2023-06-21T15:22:21Z</time></trkpt>
      <trkpt lat="63.588029" lon="-18.300263"><time>2023-06-21T15:32:20Z</time></trkpt>
      <trkpt lat="63.575345" lon="-18.341001"><time>2023-06-21T15:42:19Z</time></trkpt>
      <trkpt lat="63.566602" lon="-18.376617"><time>2023-06-21T15:52:18Z</time></trkpt>
      <trkpt lat="63.557157" lon="-18.413146"><time>2023-06-21T16:02:17Z</time></trkpt>
      <trkpt lat="63.550996" lon="-18.445405"><time>2023-06-21T16:12:16Z</time></trkpt>
      <trkpt lat="63.543317" lon="-18.479638"><time>2023-06-21T16:22:15Z</time></trkpt>
      <trkpt lat="63.539349" lon="-18.509047"><time>2023-06-21T16:32:14Z</time></trkpt>
      <trkpt lat="63.530485" lon="-18.544820"><time>2023-06-21T16:42:13Z</time></trkpt>
      <trkpt lat="63.521985" lon="-18.580120"><time>2023-06-21T16:52:12Z</time></trkpt>
      <trkpt lat="63.512724" lon="-18.616408"><time>2023-06-21T17:02:11Z</time></trkpt>
      <trkpt lat="63.501608" lon="-18.655109"><time>2023-06-21T17:12:10Z</time></trkpt>
      <trkpt lat="63.489410" lon="-18.695217"><time>2023-06-21T17:22:09Z</time></trkpt>
      <trkpt lat="63.480968" lon="-18.730442"><time>2023-06-21T17:32:08Z</time></trkpt>
      <trkpt lat="63.474777" lon="-18.762740"><time>2023-06-21T17:42:07Z</time></trkpt>
      <trkpt lat="63.469457" lon="-18.793906"><time>2023-06-21T17:52:06Z</time></trkpt>
      <trkpt lat="63.463189" lon="-18.826304"><time>2023-06-21T18:02:05Z</time></trkpt>
      <trkpt lat="63.455193" lon="-18.860949"><time>2023-06-21T18:12:04Z</time></trkpt>
      <trkpt lat="63.446473" lon="-18.896535"><time>2023-06-21T18:22:03Z</time></trkpt>
      <trkpt lat="63.437295" lon="-18.932717"><time>2023-06-21T18:32:02Z</time></trkpt>
      <trkpt lat="63.426752" lon="-18.970672"><time>2023-06-21T18:42:01Z</time></trkpt>
      <trkpt lat="63.417623" lon="-19.006790"><time>2023-06-21T18:52:00Z</time></trkpt>
      <trkpt lat="63.430381" lon="-19.034607"><time>2023-06-22T09:01:59Z</time></trkpt>
      <trkpt lat="63.440948" lon="-19.065272"><time>2023-06-22T09:11:58Z</time></trkpt>
      <trkpt lat="63.446917" lon="-19.101913"><time>2023-06-22T09:21:57Z</time></trkpt>
      <trkpt lat="63.455821" lon="-19.134739"><time>2023-06-22T09:31:56Z</time></trkpt>
      <trkpt lat="63.459533" lon="-19.174315"><time>2023-06-22T09:41:55Z</time></trkpt>
      <trkpt lat="63.467512" lon="-19.208344"><time>2023-06-22T09:51:54Z</time></trkpt>
      <trkpt lat="63.475537" lon="-19.242314"><time>2023-06-22T10:01:53Z</time></trkpt>
      <trkpt lat="63.485789" lon="-19.273387"><time>2023-06-22T10:11:52Z</time></trkpt>
      <trkpt lat="63.496036" lon="-19.304468"><time>2023-06-22T10:21:51Z</time></trkpt>
      <trkpt lat="63.507555" lon="-19.333895"><time>2023-06-22T10:31:50Z</time></trkpt>
      <trkpt lat="63.517984" lon="-19.364739"><time>2023-06-22T10:41:49Z</time></trkpt>
      <trkpt lat="63.525596" lon="-19.399246"><time>2023-06-22T10:51:48Z</time></trkpt>
      <trkpt lat="63.532770" lon="-19.434321"><time>2023-06-22T11:01:47Z</time></trkpt>
      <trkpt lat="63.538008" lon="-19.471913"><time>2023-06-22T11:11:46Z</time></trkpt>
      <trkpt lat="63.544546" lon="-19.507815"><time>2023-06-22T11:21:45Z</time></trkpt>
      <trkpt lat="63.551520" lon="-19.543151"><time>2023-06-22T11:31:44Z</time></trkpt>
      <trkpt lat="63.563367" lon="-19.572151"><time>2023-06-22T11:41:43Z</time></trkpt>
      <trkpt lat="63.574203" lon="-19.602466"><time>2023-06-22T11:51:42Z</time></trkpt>
      <trkpt lat="63.584601" lon="-19.633351"><time>2023-06-22T12:01:41Z</time></trkpt>
      <trkpt lat="63.596086" lon="-19.662821"><time>2023-06-22T12:11:40Z</time></trkpt>
      <trkpt lat="63.604173" lon="-19.696710"><time>2023-06-22T12:21:39Z</time></trkpt>
      <trkpt lat="63.609654" lon="-19.733986"><time>2023-06-22T12:31:38Z</time></trkpt>
      <trkpt lat="63.614694" lon="-19.771836"><time>2023-06-22T12:41:37Z</time></trkpt>
      <trkpt lat="63.622169" lon="-19.806520"><time>2023-06-22T12:51:36Z</time></trkpt>
      <trkpt lat="63.629335" lon="-19.841606"><time>2023-06-22T13:01:35Z</time></trkpt>
      <trkpt lat="63.639499" lon="-19.872794"><time>2023-06-22T13:11:34Z</time></trkpt>
      <trkpt lat="63.651643" lon="-19.901408"><time>2023-06-22T13:21:33Z</time></trkpt>
      <trkpt lat="63.661770" lon="-19.932646"><time>2023-06-22T13:31:32Z</time></trkpt>
      <trkpt lat="63.672680" lon="-19.962864"><time>2023-06-22T13:41:31Z</time></trkpt>
      <trkpt lat="63.680877" lon="-19.996610"><time>2023-06-22T13:51:30Z</time></trkpt>
      <trkpt lat="63.685887" lon="-20.034498"><time>2023-06-22T14:01:29Z</time></trkpt>
      <trkpt lat="63.693552" lon="-20.068935"><time>2023-06-22T14:11:28Z</time></trkpt>
      <trkpt lat="63.698516" lon="-20.106884"><time>2023-06-22T14:21:27Z</time></trkpt>
      <trkpt lat="63.708780" lon="-20.137943"><time>2023-06-22T14:31:26Z</time></trkpt>
      <trkpt lat="63.719051" lon="-20.168992"><time>2023-06-22T14:41:25Z</time></trkpt>
      <trkpt lat="63.729503" lon="-20.199806"><time>2023-06-22T14:51:24Z</time></trkpt>
      <trkpt lat="63.739256" lon="-20.231529"><time>2023-06-22T15:01:23Z</time></trkpt>
      <trkpt lat="63.750424" lon="-20.261413"><time>2023-06-22T15:11:22Z</time></trkpt>
      <trkpt lat="63.757993" lon="-20.295974"><time>2023-06-22T15:21:21Z</time></trkpt>
      <trkpt lat="63.766103" lon="-20.329833"><time>2023-06-22T15:31:20Z</time></trkpt>
      <trkpt lat="63.769540" lon="-20.369766"><time>2023-06-22T15:41:19Z</time></trkpt>
      <trkpt lat="63.778361" lon="-20.402701"><time>2023-06-22T15:51:18Z</time></trkpt>
      <trkpt lat="63.787134" lon="-20.435697"><time>2023-06-22T16:01:17Z</time></trkpt>
      <trkpt lat="63.796519" lon="-20.467899"><time>2023-06-22T16:11:16Z</time></trkpt>
      <trkpt lat="63.808031" lon="-20.497335"><time>2023-06-22T16:21:15Z</time></trkpt>
      <trkpt lat="63.817272" lon="-20.529722"><time>2023-06-22T16:31:14Z</time></trkpt>
      <trkpt lat="63.829413" lon="-20.558341"><time>2023-06-22T16:41:13Z</time></trkpt>
      <trkpt lat="63.835847" lon="-20.594379"><time>2023-06-22T16:51:12Z</time></trkpt>
      <trkpt lat="63.843605" lon="-20.628695"><time>2023-06-22T17:01:11Z</time></trkpt>
      <trkpt lat="63.849369" lon="-20.665604"><time>2023-06-22T17:11:10Z</time></trkpt>
      <trkpt lat="63.853807" lon="-20.704236"><time>2023-06-22T17:21:09Z</time></trkpt>
      <trkpt lat="63.864079" lon="-20.735285"><time>2023-06-22T17:31:08Z</time></trkpt>
      <trkpt lat="63.874719" lon="-20.765853"><time>2023-06-22T17:41:07Z</time></trkpt>
      <trkpt lat="63.883399" lon="-20.798971"><time>2023-06-22T17:51:06Z</time></trkpt>
      <trkpt lat="63.895341" lon="-20.827848"><time>2023-06-22T18:01:05Z</time></trkpt>
      <trkpt lat="63.906292" lon="-20.858014"><time>2023-06-22T18:11:04Z</time></trkpt>
      <trkpt lat="63.912358" lon="-20.894529"><time>2023-06-22T18:21:03Z</time></trkpt>
      <trkpt lat="63.920910" lon="-20.927814"><time>2023-06-22T18:31:02Z</time></trkpt>
      <trkpt lat="63.924935" lon="-20.966983"><time>2023-06-22T18:41:01Z</time></trkpt>
      <trkpt lat="63.936947" lon="-20.995769"><time>2023-06-22T18:51:00Z</time></trkpt>
      <trkpt lat="63.941008" lon="-21.010790"><time>2023-06-23T09:00:59Z</time></trkpt>
      <trkpt lat="63.946948" lon="-21.023367"><time>2023-06-23T09:10:58Z</time></trkpt>
      <trkpt lat="63.951213" lon="-21.038124"><time>2023-06-23T09:20:57Z</time></trkpt>
      <trkpt lat="63.950465" lon="-21.059396"><time>2023-06-23T09:30:56Z</time></trkpt>
      <trkpt lat="63.951385" lon="-21.078499"><time>2023-06-23T09:40:55Z</time></trkpt>
      <trkpt lat="63.953532" lon="-21.096009"><time>2023-06-23T09:50:54Z</time></trkpt>
      <trkpt lat="63.956027" lon="-21.113064"><time>2023-06-23T10:00:53Z</time></trkpt>
      <trkpt lat="63.960085" lon="-21.128089"><time>2023-06-23T10:10:52Z</time></trkpt>
      <trkpt lat="63.966614" lon="-21.139902"><time>2023-06-23T10:20:51Z</time></trkpt>
      <trkpt lat="63.972612" lon="-21.152405"><time>2023-06-23T10:30:50Z</time></trkpt>
      <trkpt lat="63.979762" lon="-21.163410"><time>2023-06-23T10:40:49Z</time></trkpt>
      <trkpt lat="63.981957" lon="-21.180855"><time>2023-06-23T10:50:48Z</time></trkpt>
      <trkpt lat="63.983963" lon="-21.198549"><time>2023-06-23T11:00:47Z</time></trkpt>
      <trkpt lat="63.982540" lon="-21.220698"><time>2023-06-23T11:10:46Z</time></trkpt>
      <trkpt lat="63.985836" lon="-21.236713"><time>2023-06-23T11:20:45Z</time></trkpt>
      <trkpt lat="63.986929" lon="-21.255593"><time>2023-06-23T11:30:44Z</time></trkpt>
      <trkpt lat="63.993120" lon="-21.267845"><time>2023-06-23T11:40:43Z</time></trkpt>
      <trkpt lat="63.999543" lon="-21.279794"><time>2023-06-23T11:50:42Z</time></trkpt>
      <trkpt lat="64.004758" lon="-21.293315"><time>2023-06-23T12:00:41Z</time></trkpt>
      <trkpt lat="64.011081" lon="-21.305394"><time>2023-06-23T12:10:40Z</time></trkpt>
      <trkpt lat="64.013049" lon="-21.323137"><time>2023-06-23T12:20:39Z</time></trkpt>
      <trkpt lat="64.014453" lon="-21.341612"><time>2023-06-23T12:30:38Z</time></trkpt>
      <trkpt lat="64.016119" lon="-21.359745"><time>2023-06-23T12:40:37Z</time></trkpt>
      <trkpt lat="64.015264" lon="-21.381157"><time>2023-06-23T12:50:36Z</time></trkpt>
      <trkpt lat="64.021076" lon="-21.393901"><time>2023-06-23T13:00:35Z</time></trkpt>
      <trkpt lat="64.024970" lon="-21.409139"><time>2023-06-23T13:10:34Z</time></trkpt>
      <trkpt lat="64.030384" lon="-21.422400"><time>2023-06-23T13:20:33Z</time></trkpt>
      <trkpt lat="64.037621" lon="-21.433293"><time>2023-06-23T13:30:32Z</time></trkpt>
      <trkpt lat="64.040765" lon="-21.449505"><time>2023-06-23T13:40:31Z</time></trkpt>
      <trkpt lat="64.045818" lon="-21.463236"><time>2023-06-23T13:50:30Z</time></trkpt>
      <trkpt lat="64.045880" lon="-21.483456"><time>2023-06-23T14:00:29Z</time></trkpt>
      <trkpt lat="64.045991" lon="-21.503612"><time>2023-06-23T14:10:28Z</time></trkpt>
      <trkpt lat="64.048713" lon="-21.520373"><time>2023-06-23T14:20:27Z</time></trkpt>
      <trkpt lat="64.050940" lon="-21.537778"><time>2023-06-23T14:30:26Z</time></trkpt>
      <trkpt lat="64.055165" lon="-21.552586"><time>2023-06-23T14:40:25Z</time></trkpt>
      <trkpt lat="64.063000" lon="-21.562700"><time>2023-06-23T14:50:24Z</time></trkpt>
      <trkpt lat="64.066922" lon="-21.577902"><time>2023-06-23T15:00:23Z</time></trkpt>
      <trkpt lat="64.073938" lon="-21.589081"><time>2023-06-23T15:10:22Z</time></trkpt>
      <trkpt lat="64.075070" lon="-21.607909"><time>2023-06-23T15:20:21Z</time></trkpt>
      <trkpt lat="64.077501" lon="-21.625048"><time>2023-06-23T15:30:20Z</time></trkpt>
      <trkpt lat="64.079300" lon="-21.643009"><time>2023-06-23T15:40:19Z</time></trkpt>
      <trkpt lat="64.079647" lon="-21.662858"><time>2023-06-23T15:50:18Z</time></trkpt>
      <trkpt lat="64.083120" lon="-21.678644"><time>2023-06-23T16:00:17Z</time></trkpt>
      <trkpt lat="64.087127" lon="-21.693735"><time>2023-06-23T16:10:16Z</time></trkpt>
      <trkpt lat="64.092341" lon="-21.707256"><time>2023-06-23T16:20:15Z</time></trkpt>
      <trkpt lat="64.098426" lon="-21.719646"><time>2023-06-23T16:30:14Z</time></trkpt>
      <trkpt lat="64.103433" lon="-21.733437"><time>2023-06-23T16:40:13Z</time></trkpt>
      <trkpt lat="64.107619" lon="-21.748295"><time>2023-06-23T16:50:12Z</time></trkpt>
      <trkpt lat="64.108315" lon="-21.767690"><time>2023-06-23T17:00:11Z</time></trkpt>
      <trkpt lat="64.109325" lon="-21.786677"><time>2023-06-23T17:10:10Z</time></trkpt>
      <trkpt lat="64.112048" lon="-21.803438"><time>2023-06-23T17:20:09Z</time></trkpt>
      <trkpt lat="64.113043" lon="-21.822444"><time>2023-06-23T17:30:08Z</time></trkpt>
      <trkpt lat="64.118426" lon="-21.835746"><time>2023-06-23T17:40:07Z</time></trkpt>
      <trkpt lat="64.125862" lon="-21.846379"><time>2023-06-23T17:50:06Z</time></trkpt>
      <trkpt lat="64.129939" lon="-21.861380"><time>2023-06-23T18:00:05Z</time></trkpt>
      <trkpt lat="64.134498" lon="-21.875753"><time>2023-06-23T18:10:04Z</time></trkpt>
      <trkpt lat="64.138297" lon="-21.891114"><time>2023-06-23T18:20:03Z</time></trkpt>
      <trkpt lat="64.138773" lon="-21.910796"><time>2023-06-23T18:30:02Z</time></trkpt>
      <trkpt lat="64.140298" lon="-21.929112"><time>2023-06-23T18:40:01Z</time></trkpt>
      <trkpt lat="64.146000" lon="-21.942000"><time>2023-06-23T18:50:00Z</time></trkpt>
    </trkseg>
  </trk>
</gpx>
