<?xml version="1.0" encoding="UTF-8"?>
<gpx version="1.1" creator="Globe Link example" xmlns="http://www.topografix.com/GPX/1/1">
  <metadata><name>Pacific Coast Highway</name><time>2026-01-01T00:00:00Z</time></metadata>
  <trk>
    <name>Pacific Coast Highway</name>
    <trkseg>
      <trkpt lat="37.807173" lon="-122.476075"><time>2022-09-03T07:15:00Z</time></trkpt>
      <trkpt lat="37.805711" lon="-122.471241"><time>2022-09-03T07:16:19Z</time></trkpt>
      <trkpt lat="37.801976" lon="-122.469362"><time>2022-09-03T07:17:39Z</time></trkpt>
      <trkpt lat="37.795215" lon="-122.471415"><time>2022-09-03T07:18:59Z</time></trkpt>
      <trkpt lat="37.789245" lon="-122.472441"><time>2022-09-03T07:20:19Z</time></trkpt>
      <trkpt lat="37.780938" lon="-122.476505"><time>2022-09-03T07:21:39Z</time></trkpt>
      <trkpt lat="37.772718" lon="-122.480457"><time>2022-09-03T07:22:59Z</time></trkpt>
      <trkpt lat="37.769563" lon="-122.477823"><time>2022-09-03T07:24:18Z</time></trkpt>
      <trkpt lat="37.763772" lon="-122.478616"><time>2022-09-03T07:25:38Z</time></trkpt>
      <trkpt lat="37.760965" lon="-122.475530"><time>2022-09-03T07:26:58Z</time></trkpt>
      <trkpt lat="37.758249" lon="-122.472327"><time>2022-09-03T07:28:18Z</time></trkpt>
      <trkpt lat="37.756084" lon="-122.468406"><time>2022-09-03T07:29:38Z</time></trkpt>
      <trkpt lat="37.751132" lon="-122.468108"><time>2022-09-03T07:30:58Z</time></trkpt>
      <trkpt lat="37.743606" lon="-122.471157"><time>2022-09-03T07:32:18Z</time></trkpt>
      <trkpt lat="37.734607" lon="-122.476121"><time>2022-09-03T07:33:37Z</time></trkpt>
      <trkpt lat="37.727024" lon="-122.479244"><time>2022-09-03T07:34:57Z</time></trkpt>
      <trkpt lat="37.720751" lon="-122.480664"><time>2022-09-03T07:36:17Z</time></trkpt>
      <trkpt lat="37.718979" lon="-122.476232"><time>2022-09-03T07:37:37Z</time></trkpt>
      <trkpt lat="37.716221" lon="-122.473082"><time>2022-09-03T07:38:57Z</time></trkpt>
      <trkpt lat="37.713013" lon="-122.470519"><time>2022-09-03T07:40:17Z</time></trkpt>
      <trkpt lat="37.710066" lon="-122.467614"><time>2022-09-03T07:41:37Z</time></trkpt>
      <trkpt lat="37.703764" lon="-122.469071"><time>2022-09-03T07:42:56Z</time></trkpt>
      <trkpt lat="37.697957" lon="-122.469886"><time>2022-09-03T07:44:16Z</time></trkpt>
      <trkpt lat="37.689489" lon="-122.474159"><time>2022-09-03T07:45:36Z</time></trkpt>
      <trkpt lat="37.680895" lon="-122.478596"><time>2022-09-03T07:46:56Z</time></trkpt>
      <trkpt lat="37.677391" lon="-122.476416"><time>2022-09-03T07:48:16Z</time></trkpt>
      <trkpt lat="37.671179" lon="-122.477757"><time>2022-09-03T07:49:36Z</time></trkpt>
      <trkpt lat="37.670146" lon="-122.472365"><time>2022-09-03T07:50:56Z</time></trkpt>
      <trkpt lat="37.667179" lon="-122.469487"><time>2022-09-03T07:52:15Z</time></trkpt>
      <trkpt lat="37.662801" lon="-122.468444"><time>2022-09-03T07:53:35Z</time></trkpt>
      <trkpt lat="37.656522" lon="-122.469872"><time>2022-09-03T07:54:55Z</time></trkpt>
      <trkpt lat="37.651368" lon="-122.469836"><time>2022-09-03T07:56:15Z</time></trkpt>
      <trkpt lat="37.641213" lon="-122.476302"><time>2022-09-03T07:57:35Z</time></trkpt>
      <trkpt lat="37.635722" lon="-122.476706"><time>2022-09-03T07:58:55Z</time></trkpt>
      <trkpt lat="37.631469" lon="-122.475500"><time>2022-09-03T08:00:14Z</time></trkpt>
      <trkpt lat="37.625478" lon="-122.476554"><time>2022-09-03T08:01:34Z</time></trkpt>
      <trkpt lat="37.623167" lon="-122.472822"><time>2022-09-03T08:02:54Z</time></trkpt>
      <trkpt lat="37.621784" lon="-122.467885"><time>2022-09-03T08:04:14Z</time></trkpt>
      <trkpt lat="37.617566" lon="-122.466634"><time>2022-09-03T08:05:34Z</time></trkpt>
      <trkpt lat="37.612184" lon="-122.466896"><time>2022-09-03T08:06:54Z</time></trkpt>
      <trkpt lat="37.605357" lon="-122.469036"><time>2022-09-03T08:08:14Z</time></trkpt>
      <trkpt lat="37.595589" lon="-122.474999"><time>2022-09-03T08:09:33Z</time></trkpt>
      <trkpt lat="37.588918" lon="-122.476937"><time>2022-09-03T08:10:53Z</time></trkpt>
      <trkpt lat="37.583513" lon="-122.477228"><time>2022-09-03T08:12:13Z</time></trkpt>
      <trkpt lat="37.579201" lon="-122.476098"><time>2022-09-03T08:13:33Z</time></trkpt>
      <trkpt lat="37.579254" lon="-122.469295"><time>2022-09-03T08:14:53Z</time></trkpt>
      <trkpt lat="37.576307" lon="-122.466391"><time>2022-09-03T08:16:13Z</time></trkpt>
      <trkpt lat="37.572148" lon="-122.465063"><time>2022-09-03T08:17:33Z</time></trkpt>
      <trkpt lat="37.564190" lon="-122.468673"><time>2022-09-03T08:18:52Z</time></trkpt>
      <trkpt lat="37.559335" lon="-122.468249"><time>2022-09-03T08:20:12Z</time></trkpt>
      <trkpt lat="37.551189" lon="-122.472104"><time>2022-09-03T08:21:32Z</time></trkpt>
      <trkpt lat="37.543307" lon="-122.475616"><time>2022-09-03T08:22:52Z</time></trkpt>
      <trkpt lat="37.538805" lon="-122.474733"><time>2022-09-03T08:24:12Z</time></trkpt>
      <trkpt lat="37.534418" lon="-122.473701"><time>2022-09-03T08:25:32Z</time></trkpt>
      <trkpt lat="37.531281" lon="-122.471045"><time>2022-09-03T08:26:52Z</time></trkpt>
      <trkpt lat="37.528271" lon="-122.468223"><time>2022-09-03T08:28:11Z</time></trkpt>
      <trkpt lat="37.524654" lon="-122.466190"><time>2022-09-03T08:29:31Z</time></trkpt>
      <trkpt lat="37.518198" lon="-122.467847"><time>2022-09-03T08:30:51Z</time></trkpt>
      <trkpt lat="37.511693" lon="-122.469569"><time>2022-09-03T08:32:11Z</time></trkpt>
      <trkpt lat="37.505092" lon="-122.471415"><time>2022-09-03T08:33:31Z</time></trkpt>
      <trkpt lat="37.501585" lon="-122.469239"><time>2022-09-03T08:34:51Z</time></trkpt>
      <trkpt lat="37.495830" lon="-122.457970"><time>2022-09-03T08:36:10Z</time></trkpt>
      <trkpt lat="37.488010" lon="-122.449383"><time>2022-09-03T08:37:30Z</time></trkpt>
      <trkpt lat="37.477401" lon="-122.444424"><time>2022-09-03T08:38:50Z</time></trkpt>
      <trkpt lat="37.467368" lon="-122.438715"><time>2022-09-03T08:40:10Z</time></trkpt>
      <trkpt lat="37.455488" lon="-122.435407"><time>2022-09-03T08:41:30Z</time></trkpt>
      <trkpt lat="37.445679" lon="-122.429407"><time>2022-09-03T08:42:50Z</time></trkpt>
      <trkpt lat="37.435657" lon="-122.423685"><time>2022-09-03T08:44:10Z</time></trkpt>
      <trkpt lat="37.427504" lon="-122.415531"><time>2022-09-03T08:45:29Z</time></trkpt>
      <trkpt lat="37.422443" lon="-122.403359"><time>2022-09-03T08:46:49Z</time></trkpt>
      <trkpt lat="37.417190" lon="-122.391436"><time>2022-09-03T08:48:09Z</time></trkpt>
      <trkpt lat="37.407487" lon="-122.385299"><time>2022-09-03T08:49:29Z</time></trkpt>
      <trkpt lat="37.400159" lon="-122.376074"><time>2022-09-03T08:50:49Z</time></trkpt>
      <trkpt lat="37.386639" lon="-122.374898"><time>2022-09-03T08:52:09Z</time></trkpt>
      <trkpt lat="37.375849" lon="-122.370174"><time>2022-09-03T08:53:29Z</time></trkpt>
      <trkpt lat="37.364940" lon="-122.365604"><time>2022-09-03T08:54:48Z</time></trkpt>
      <trkpt lat="37.357282" lon="-122.356807"><time>2022-09-03T08:56:08Z</time></trkpt>
      <trkpt lat="37.350545" lon="-122.346813"><time>2022-09-03T08:57:28Z</time></trkpt>
      <trkpt lat="37.343773" lon="-122.336865"><time>2022-09-03T08:58:48Z</time></trkpt>
      <trkpt lat="37.336276" lon="-122.327860"><time>2022-09-03T09:00:08Z</time></trkpt>
      <trkpt lat="37.330436" lon="-122.316700"><time>2022-09-03T09:01:28Z</time></trkpt>
      <trkpt lat="37.319419" lon="-122.312271"><time>2022-09-03T09:02:48Z</time></trkpt>
      <trkpt lat="37.308197" lon="-122.308108"><time>2022-09-03T09:04:07Z</time></trkpt>
      <trkpt lat="37.298678" lon="-122.301731"><time>2022-09-03T09:05:27Z</time></trkpt>
      <trkpt lat="37.287042" lon="-122.298106"><time>2022-09-03T09:06:47Z</time></trkpt>
      <trkpt lat="37.278093" lon="-122.290988"><time>2022-09-03T09:08:07Z</time></trkpt>
      <trkpt lat="37.270710" lon="-122.281834"><time>2022-09-03T09:09:27Z</time></trkpt>
      <trkpt lat="37.265489" lon="-122.269870"><time>2022-09-03T09:10:47Z</time></trkpt>
      <trkpt lat="37.257703" lon="-122.261239"><time>2022-09-03T09:12:06Z</time></trkpt>
      <trkpt lat="37.251274" lon="-122.250846"><time>2022-09-03T09:13:26Z</time></trkpt>
      <trkpt lat="37.241439" lon="-122.244879"><time>2022-09-03T09:14:46Z</time></trkpt>
      <trkpt lat="37.230937" lon="-122.239780"><time>2022-09-03T09:16:06Z</time></trkpt>
      <trkpt lat="37.218155" lon="-122.237645"><time>2022-09-03T09:17:26Z</time></trkpt>
      <trkpt lat="37.208243" lon="-122.231779"><time>2022-09-03T09:18:46Z</time></trkpt>
      <trkpt lat="37.198690" lon="-122.225446"><time>2022-09-03T09:20:06Z</time></trkpt>
      <trkpt lat="37.190641" lon="-122.217158"><time>2022-09-03T09:21:25Z</time></trkpt>
      <trkpt lat="37.184205" lon="-122.206774"><time>2022-09-03T09:22:45Z</time></trkpt>
      <trkpt lat="37.179161" lon="-122.194579"><time>2022-09-03T09:24:05Z</time></trkpt>
      <trkpt lat="37.169945" lon="-122.187808"><time>2022-09-03T09:25:25Z</time></trkpt>
      <trkpt lat="37.162992" lon="-122.178096"><time>2022-09-03T09:26:45Z</time></trkpt>
      <trkpt lat="37.149684" lon="-122.176644"><time>2022-09-03T09:28:05Z</time></trkpt>
      <trkpt lat="37.137812" lon="-122.173326"><time>2022-09-03T09:29:25Z</time></trkpt>
      <trkpt lat="37.127310" lon="-122.168227"><time>2022-09-03T09:30:44Z</time></trkpt>
      <trkpt lat="37.120733" lon="-122.158026"><time>2022-09-03T09:32:04Z</time></trkpt>
      <trkpt lat="37.111757" lon="-122.150942"><time>2022-09-03T09:33:24Z</time></trkpt>
      <trkpt lat="37.105011" lon="-122.140960"><time>2022-09-03T09:34:44Z</time></trkpt>
      <trkpt lat="37.098378" lon="-122.130833"><time>2022-09-03T09:36:04Z</time></trkpt>
      <trkpt lat="37.090793" lon="-122.121940"><time>2022-09-03T09:37:24Z</time></trkpt>
      <trkpt lat="37.083249" lon="-122.112996"><time>2022-09-03T09:38:44Z</time></trkpt>
      <trkpt lat="37.072037" lon="-122.108820"><time>2022-09-03T09:40:03Z</time></trkpt>
      <trkpt lat="37.060712" lon="-122.104792"><time>2022-09-03T09:41:23Z</time></trkpt>
      <trkpt lat="37.050122" lon="-122.099807"><time>2022-09-03T09:42:43Z</time></trkpt>
      <trkpt lat="37.039111" lon="-122.095369"><time>2022-09-03T09:44:03Z</time></trkpt>
      <trkpt lat="37.033499" lon="-122.083913"><time>2022-09-03T09:45:23Z</time></trkpt>
      <trkpt lat="37.026693" lon="-122.074009"><time>2022-09-03T09:46:43Z</time></trkpt>
      <trkpt lat="37.021741" lon="-122.061695"><time>2022-09-03T09:48:02Z</time></trkpt>
      <trkpt lat="37.014082" lon="-122.052900"><time>2022-09-03T09:49:22Z</time></trkpt>
      <trkpt lat="37.004756" lon="-122.046273"><time>2022-09-03T09:50:42Z</time></trkpt>
      <trkpt lat="36.991218" lon="-122.045120"><time>2022-09-03T09:52:02Z</time></trkpt>
      <trkpt lat="36.982113" lon="-122.038204"><time>2022-09-03T09:53:22Z</time></trkpt>
      <trkpt lat="36.975243" lon="-122.028384"><time>2022-09-03T09:54:42Z</time></trkpt>
      <trkpt lat="36.971677" lon="-122.022584"><time>2022-09-03T09:56:02Z</time></trkpt>
      <trkpt lat="36.964296" lon="-122.021741"><time>2022-09-03T09:57:21Z</time></trkpt>
      <trkpt lat="36.957870" lon="-122.019659"><time>2022-09-03T09:58:41Z</time></trkpt>
      <trkpt lat="36.949243" lon="-122.020438"><time>2022-09-03T10:00:01Z</time></trkpt>
      <trkpt lat="36.940033" lon="-122.021973"><time>2022-09-03T10:01:21Z</time></trkpt>
      <trkpt lat="36.934157" lon="-122.019176"><time>2022-09-03T10:02:41Z</time></trkpt>
      <trkpt lat="36.927373" lon="-122.017559"><time>2022-09-03T10:04:01Z</time></trkpt>
      <trkpt lat="36.922011" lon="-122.014093"><time>2022-09-03T10:05:21Z</time></trkpt>
      <trkpt lat="36.918942" lon="-122.007645"><time>2022-09-03T10:06:40Z</time></trkpt>
      <trkpt lat="36.914689" lon="-122.002737"><time>2022-09-03T10:08:00Z</time></trkpt>
      <trkpt lat="36.908748" lon="-122.000024"><time>2022-09-03T10:09:20Z</time></trkpt>
      <trkpt lat="36.901418" lon="-121.999117"><time>2022-09-03T10:10:40Z</time></trkpt>
      <trkpt lat="36.893037" lon="-121.999576"><time>2022-09-03T10:12:00Z</time></trkpt>
      <trkpt lat="36.886040" lon="-121.998235"><time>2022-09-03T10:13:20Z</time></trkpt>
      <trkpt lat="36.876096" lon="-122.000725"><time>2022-09-03T10:14:40Z</time></trkpt>
      <trkpt lat="36.869807" lon="-121.998464"><time>2022-09-03T10:15:59Z</time></trkpt>
      <trkpt lat="36.865332" lon="-121.993845"><time>2022-09-03T10:17:19Z</time></trkpt>
      <trkpt lat="36.860497" lon="-121.989694"><time>2022-09-03T10:18:39Z</time></trkpt>
      <trkpt lat="36.857515" lon="-121.983134"><time>2022-09-03T10:19:59Z</time></trkpt>
      <trkpt lat="36.852644" lon="-121.979030"><time>2022-09-03T10:21:19Z</time></trkpt>
      <trkpt lat="36.847130" lon="-121.975761"><time>2022-09-03T10:22:39Z</time></trkpt>
      <trkpt lat="36.837683" lon="-121.977605"><time>2022-09-03T10:23:59Z</time></trkpt>
      <trkpt lat="36.828568" lon="-121.979019"><time>2022-09-03T10:25:18Z</time></trkpt>
      <trkpt lat="36.822242" lon="-121.976806"><time>2022-09-03T10:26:38Z</time></trkpt>
      <trkpt lat="36.814275" lon="-121.976725"><time>2022-09-03T10:27:58Z</time></trkpt>
      <trkpt lat="36.810568" lon="-121.971108"><time>2022-09-03T10:29:18Z</time></trkpt>
      <trkpt lat="36.806257" lon="-121.966277"><time>2022-09-03T10:30:38Z</time></trkpt>
      <trkpt lat="36.800787" lon="-121.962950"><time>2022-09-03T10:31:58Z</time></trkpt>
      <trkpt lat="36.796943" lon="-121.957511"><time>2022-09-03T10:33:17Z</time></trkpt>
      <trkpt lat="36.790156" lon="-121.955897"><time>2022-09-03T10:34:37Z</time></trkpt>
      <trkpt lat="36.782734" lon="-121.955109"><time>2022-09-03T10:35:57Z</time></trkpt>
      <trkpt lat="36.772483" lon="-121.957998"><time>2022-09-03T10:37:17Z</time></trkpt>
      <trkpt lat="36.765333" lon="-121.956857"><time>2022-09-03T10:38:37Z</time></trkpt>
      <trkpt lat="36.758293" lon="-121.955572"><time>2022-09-03T10:39:57Z</time></trkpt>
      <trkpt lat="36.752618" lon="-121.952514"><time>2022-09-03T10:41:17Z</time></trkpt>
      <trkpt lat="36.750956" lon="-121.944238"><time>2022-09-03T10:42:36Z</time></trkpt>
      <trkpt lat="36.744916" lon="-121.941653"><time>2022-09-03T10:43:56Z</time></trkpt>
      <trkpt lat="36.742071" lon="-121.934914"><time>2022-09-03T10:45:16Z</time></trkpt>
      <trkpt lat="36.733220" lon="-121.935983"><time>2022-09-03T10:46:36Z</time></trkpt>
      <trkpt lat="36.724254" lon="-121.937203"><time>2022-09-03T10:47:56Z</time></trkpt>
      <trkpt lat="36.715888" lon="-121.937643"><time>2022-09-03T10:49:16Z</time></trkpt>
      <trkpt lat="36.709376" lon="-121.935671"><time>2022-09-03T10:50:36Z</time></trkpt>
      <trkpt lat="36.703529" lon="-121.932835"><time>2022-09-03T10:51:55Z</time></trkpt>
      <trkpt lat="36.695936" lon="-121.932270"><time>2022-09-03T10:53:15Z</time></trkpt>
      <trkpt lat="36.693808" lon="-121.924599"><time>2022-09-03T10:54:35Z</time></trkpt>
      <trkpt lat="36.690066" lon="-121.919028"><time>2022-09-03T10:55:55Z</time></trkpt>
      <trkpt lat="36.685909" lon="-121.913995"><time>2022-09-03T10:57:15Z</time></trkpt>
      <trkpt lat="36.677125" lon="-121.914978"><time>2022-09-03T10:58:35Z</time></trkpt>
      <trkpt lat="36.669569" lon="-121.914363"><time>2022-09-03T10:59:55Z</time></trkpt>
      <trkpt lat="36.660162" lon="-121.916156"><time>2022-09-03T11:01:14Z</time></trkpt>
      <trkpt lat="36.653457" lon="-121.914436"><time>2022-09-03T11:02:34Z</time></trkpt>
      <trkpt lat="36.645295" lon="-121.914610"><time>2022-09-03T11:03:54Z</time></trkpt>
      <trkpt lat="36.642709" lon="-121.907535"><time>2022-09-03T11:05:14Z</time></trkpt>
      <trkpt lat="36.637154" lon="-121.904320"><time>2022-09-03T11:06:34Z</time></trkpt>
      <trkpt lat="36.633183" lon="-121.899046"><time>2022-09-03T11:07:54Z</time></trkpt>
      <trkpt lat="36.629522" lon="-121.893368"><time>2022-09-03T11:09:13Z</time></trkpt>
      <trkpt lat="36.621927" lon="-121.892805"><time>2022-09-03T11:10:33Z</time></trkpt>
      <trkpt lat="36.612250" lon="-121.894948"><time>2022-09-03T11:11:53Z</time></trkpt>
      <trkpt lat="36.604870" lon="-121.894106"><time>2022-09-03T11:13:13Z</time></trkpt>
      <trkpt lat="36.598743" lon="-121.891635"><time>2022-09-03T11:14:33Z</time></trkpt>
      <trkpt lat="36.597941" lon="-121.884194"><time>2022-09-03T11:15:53Z</time></trkpt>
      <trkpt lat="36.593533" lon="-121.881440"><time>2022-09-03T11:17:13Z</time></trkpt>
      <trkpt lat="36.587814" lon="-121.880392"><time>2022-09-03T11:18:32Z</time></trkpt>
      <trkpt lat="36.579724" lon="-121.882426"><time>2022-09-03T11:19:52Z</time></trkpt>
      <trkpt lat="36.570664" lon="-121.885720"><time>2022-09-03T11:21:12Z</time></trkpt>
      <trkpt lat="36.563218" lon="-121.886917"><time>2022-09-03T11:22:32Z</time></trkpt>
      <trkpt lat="36.557254" lon="-121.886186"><time>2022-09-03T11:23:52Z</time></trkpt>
      <trkpt lat="36.554646" lon="-121.881093"><time>2022-09-03T11:25:12Z</time></trkpt>
      <trkpt lat="36.549326" lon="-121.879526"><time>2022-09-03T11:26:32Z</time></trkpt>
      <trkpt lat="36.548793" lon="-121.871735"><time>2022-09-03T11:27:51Z</time></trkpt>
      <trkpt lat="36.542028" lon="-121.872047"><time>2022-09-03T11:29:11Z</time></trkpt>
      <trkpt lat="36.536537" lon="-121.870702"><time>2022-09-03T11:30:31Z</time></trkpt>
      <trkpt lat="36.529066" lon="-121.871931"><time>2022-09-03T11:31:51Z</time></trkpt>
      <trkpt lat="36.522738" lon="-121.871674"><time>2022-09-03T11:33:11Z</time></trkpt>
      <trkpt lat="36.513985" lon="-121.874570"><time>2022-09-03T11:34:31Z</time></trkpt>
      <trkpt lat="36.507721" lon="-121.874229"><time>2022-09-03T11:35:51Z</time></trkpt>
      <trkpt lat="36.505179" lon="-121.869050"><time>2022-09-03T11:37:10Z</time></trkpt>
      <trkpt lat="36.500335" lon="-121.866864"><time>2022-09-03T11:38:30Z</time></trkpt>
      <trkpt lat="36.498061" lon="-121.861337"><time>2022-09-03T11:39:50Z</time></trkpt>
      <trkpt lat="36.494057" lon="-121.858059"><time>2022-09-03T11:41:10Z</time></trkpt>
      <trkpt lat="36.488646" lon="-121.856610"><time>2022-09-03T11:42:30Z</time></trkpt>
      <trkpt lat="36.480971" lon="-121.858104"><time>2022-09-03T11:43:50Z</time></trkpt>
      <trkpt lat="36.472411" lon="-121.860750"><time>2022-09-03T11:45:09Z</time></trkpt>
      <trkpt lat="36.463995" lon="-121.863206"><time>2022-09-03T11:46:29Z</time></trkpt>
      <trkpt lat="36.458077" lon="-121.862416"><time>2022-09-03T11:47:49Z</time></trkpt>
      <trkpt lat="36.453547" lon="-121.859823"><time>2022-09-03T11:49:09Z</time></trkpt>
      <trkpt lat="36.452731" lon="-121.852400"><time>2022-09-03T11:50:29Z</time></trkpt>
      <trkpt lat="36.449214" lon="-121.848488"><time>2022-09-03T11:51:49Z</time></trkpt>
      <trkpt lat="36.445197" lon="-121.845227"><time>2022-09-03T11:53:09Z</time></trkpt>
      <trkpt lat="36.437355" lon="-121.846938"><time>2022-09-03T11:54:28Z</time></trkpt>
      <trkpt lat="36.430465" lon="-121.847413"><time>2022-09-03T11:55:48Z</time></trkpt>
      <trkpt lat="36.423230" lon="-121.848334"><time>2022-09-03T11:57:08Z</time></trkpt>
      <trkpt lat="36.415157" lon="-121.850346"><time>2022-09-03T11:58:28Z</time></trkpt>
      <trkpt lat="36.407991" lon="-121.851178"><time>2022-09-03T11:59:48Z</time></trkpt>
      <trkpt lat="36.405021" lon="-121.846557"><time>2022-09-03T12:01:08Z</time></trkpt>
      <trkpt lat="36.403424" lon="-121.840149"><time>2022-09-03T12:02:28Z</time></trkpt>
      <trkpt lat="36.398490" lon="-121.838079"><time>2022-09-03T12:03:47Z</time></trkpt>
      <trkpt lat="36.394053" lon="-121.835364"><time>2022-09-03T12:05:07Z</time></trkpt>
      <trkpt lat="36.388214" lon="-121.834472"><time>2022-09-03T12:06:27Z</time></trkpt>
      <trkpt lat="36.381693" lon="-121.834466"><time>2022-09-03T12:07:47Z</time></trkpt>
      <trkpt lat="36.373879" lon="-121.836140"><time>2022-09-03T12:09:07Z</time></trkpt>
      <trkpt lat="36.364354" lon="-121.840040"><time>2022-09-03T12:10:27Z</time></trkpt>
      <trkpt lat="36.358597" lon="-121.839040"><time>2022-09-03T12:11:47Z</time></trkpt>
      <trkpt lat="36.354932" lon="-121.835322"><time>2022-09-03T12:13:06Z</time></trkpt>
      <trkpt lat="36.352316" lon="-121.830240"><time>2022-09-03T12:14:26Z</time></trkpt>
      <trkpt lat="36.349891" lon="-121.824908"><time>2022-09-03T12:15:46Z</time></trkpt>
      <trkpt lat="36.344468" lon="-121.823475"><time>2022-09-03T12:17:06Z</time></trkpt>
      <trkpt lat="36.338755" lon="-121.822418"><time>2022-09-03T12:18:26Z</time></trkpt>
      <trkpt lat="36.330587" lon="-121.824554"><time>2022-09-03T12:19:46Z</time></trkpt>
      <trkpt lat="36.324713" lon="-121.823707"><time>2022-09-03T12:21:05Z</time></trkpt>
      <trkpt lat="36.316548" lon="-121.825838"><time>2022-09-03T12:22:25Z</time></trkpt>
      <trkpt lat="36.308952" lon="-121.827229"><time>2022-09-03T12:23:45Z</time></trkpt>
      <trkpt lat="36.307632" lon="-121.820462"><time>2022-09-03T12:25:05Z</time></trkpt>
      <trkpt lat="36.302208" lon="-121.819030"><time>2022-09-03T12:26:25Z</time></trkpt>
      <trkpt lat="36.300025" lon="-121.813385"><time>2022-09-03T12:27:45Z</time></trkpt>
      <trkpt lat="36.297442" lon="-121.808259"><time>2022-09-03T12:29:05Z</time></trkpt>
      <trkpt lat="36.290617" lon="-121.808648"><time>2022-09-03T12:30:24Z</time></trkpt>
      <trkpt lat="36.282653" lon="-121.810517"><time>2022-09-03T12:31:44Z</time></trkpt>
      <trkpt lat="36.273532" lon="-121.813892"><time>2022-09-03T12:33:04Z</time></trkpt>
      <trkpt lat="36.269089" lon="-121.811185"><time>2022-09-03T12:34:24Z</time></trkpt>
      <trkpt lat="36.262824" lon="-121.796779"><time>2022-09-03T12:35:44Z</time></trkpt>
      <trkpt lat="36.252429" lon="-121.787742"><time>2022-09-03T12:37:04Z</time></trkpt>
      <trkpt lat="36.242072" lon="-121.778656"><time>2022-09-03T12:38:24Z</time></trkpt>
      <trkpt lat="36.230338" lon="-121.771360"><time>2022-09-03T12:39:43Z</time></trkpt>
      <trkpt lat="36.216365" lon="-121.766975"><time>2022-09-03T12:41:03Z</time></trkpt>
      <trkpt lat="36.205211" lon="-121.758926"><time>2022-09-03T12:42:23Z</time></trkpt>
      <trkpt lat="36.195777" lon="-121.748641"><time>2022-09-03T12:43:43Z</time></trkpt>
      <trkpt lat="36.186722" lon="-121.737862"><time>2022-09-03T12:45:03Z</time></trkpt>
      <trkpt lat="36.178569" lon="-121.725911"><time>2022-09-03T12:46:23Z</time></trkpt>
      <trkpt lat="36.171358" lon="-121.712734"><time>2022-09-03T12:47:43Z</time></trkpt>
      <trkpt lat="36.162009" lon="-121.702338"><time>2022-09-03T12:49:02Z</time></trkpt>
      <trkpt lat="36.150344" lon="-121.694953"><time>2022-09-03T12:50:22Z</time></trkpt>
      <trkpt lat="36.139421" lon="-121.686603"><time>2022-09-03T12:51:42Z</time></trkpt>
      <trkpt lat="36.125915" lon="-121.681611"><time>2022-09-03T12:53:02Z</time></trkpt>
      <trkpt lat="36.114704" lon="-121.673635"><time>2022-09-03T12:54:22Z</time></trkpt>
      <trkpt lat="36.104641" lon="-121.664167"><time>2022-09-03T12:55:42Z</time></trkpt>
      <trkpt lat="36.094484" lon="-121.654821"><time>2022-09-03T12:57:01Z</time></trkpt>
      <trkpt lat="36.087356" lon="-121.641537"><time>2022-09-03T12:58:21Z</time></trkpt>
      <trkpt lat="36.080259" lon="-121.628213"><time>2022-09-03T12:59:41Z</time></trkpt>
      <trkpt lat="36.070393" lon="-121.618490"><time>2022-09-03T13:01:01Z</time></trkpt>
      <trkpt lat="36.059069" lon="-121.610661"><time>2022-09-03T13:02:21Z</time></trkpt>
      <trkpt lat="36.048212" lon="-121.602224"><time>2022-09-03T13:03:41Z</time></trkpt>
      <trkpt lat="36.035779" lon="-121.595838"><time>2022-09-03T13:05:01Z</time></trkpt>
      <trkpt lat="36.023272" lon="-121.589547"><time>2022-09-03T13:06:20Z</time></trkpt>
      <trkpt lat="36.012531" lon="-121.580960"><time>2022-09-03T13:07:40Z</time></trkpt>
      <trkpt lat="36.004305" lon="-121.569104"><time>2022-09-03T13:09:00Z</time></trkpt>
      <trkpt lat="35.996240" lon="-121.557037"><time>2022-09-03T13:10:20Z</time></trkpt>
      <trkpt lat="35.988486" lon="-121.544568"><time>2022-09-03T13:11:40Z</time></trkpt>
      <trkpt lat="35.978999" lon="-121.534351"><time>2022-09-03T13:13:00Z</time></trkpt>
      <trkpt lat="35.967786" lon="-121.526379"><time>2022-09-03T13:14:20Z</time></trkpt>
      <trkpt lat="35.956366" lon="-121.518674"><time>2022-09-03T13:15:39Z</time></trkpt>
      <trkpt lat="35.941870" lon="-121.514969"><time>2022-09-03T13:16:59Z</time></trkpt>
      <trkpt lat="35.930678" lon="-121.506969"><time>2022-09-03T13:18:19Z</time></trkpt>
      <trkpt lat="35.921293" lon="-121.496619"><time>2022-09-03T13:19:39Z</time></trkpt>
      <trkpt lat="35.912441" lon="-121.485577"><time>2022-09-03T13:20:59Z</time></trkpt>
      <trkpt lat="35.904658" lon="-121.473145"><time>2022-09-03T13:22:19Z</time></trkpt>
      <trkpt lat="35.895860" lon="-121.462032"><time>2022-09-03T13:23:39Z</time></trkpt>
      <trkpt lat="35.887416" lon="-121.450459"><time>2022-09-03T13:24:58Z</time></trkpt>
      <trkpt lat="35.876675" lon="-121.441873"><time>2022-09-03T13:26:18Z</time></trkpt>
      <trkpt lat="35.864782" lon="-121.434784"><time>2022-09-03T13:27:38Z</time></trkpt>
      <trkpt lat="35.851243" lon="-121.429834"><time>2022-09-03T13:28:58Z</time></trkpt>
      <trkpt lat="35.839916" lon="-121.422010"><time>2022-09-03T13:30:18Z</time></trkpt>
      <trkpt lat="35.830253" lon="-121.412021"><time>2022-09-03T13:31:38Z</time></trkpt>
      <trkpt lat="35.819405" lon="-121.403574"><time>2022-09-03T13:32:58Z</time></trkpt>
      <trkpt lat="35.813299" lon="-121.388961"><time>2022-09-03T13:34:17Z</time></trkpt>
      <trkpt lat="35.805993" lon="-121.375910"><time>2022-09-03T13:35:37Z</time></trkpt>
      <trkpt lat="35.795818" lon="-121.366587"><time>2022-09-03T13:36:57Z</time></trkpt>
      <trkpt lat="35.785241" lon="-121.357787"><time>2022-09-03T13:38:17Z</time></trkpt>
      <trkpt lat="35.774276" lon="-121.349491"><time>2022-09-03T13:39:37Z</time></trkpt>
      <trkpt lat="35.758568" lon="-121.347361"><time>2022-09-03T13:40:57Z</time></trkpt>
      <trkpt lat="35.747991" lon="-121.338561"><time>2022-09-03T13:42:16Z</time></trkpt>
      <trkpt lat="35.736463" lon="-121.330999"><time>2022-09-03T13:43:36Z</time></trkpt>
      <trkpt lat="35.729756" lon="-121.317167"><time>2022-09-03T13:44:56Z</time></trkpt>
      <trkpt lat="35.722725" lon="-121.303758"><time>2022-09-03T13:46:16Z</time></trkpt>
      <trkpt lat="35.713763" lon="-121.292858"><time>2022-09-03T13:47:36Z</time></trkpt>
      <trkpt lat="35.703460" lon="-121.283702"><time>2022-09-03T13:48:56Z</time></trkpt>
      <trkpt lat="35.693956" lon="-121.273508"><time>2022-09-03T13:50:16Z</time></trkpt>
      <trkpt lat="35.681410" lon="-121.267267"><time>2022-09-03T13:51:35Z</time></trkpt>
      <trkpt lat="35.669045" lon="-121.260791"><time>2022-09-03T13:52:55Z</time></trkpt>
      <trkpt lat="35.660037" lon="-121.249952"><time>2022-09-03T13:54:15Z</time></trkpt>
      <trkpt lat="35.656661" lon="-121.236274"><time>2022-09-03T13:55:35Z</time></trkpt>
      <trkpt lat="35.652262" lon="-121.223926"><time>2022-09-03T13:56:55Z</time></trkpt>
      <trkpt lat="35.644518" lon="-121.215927"><time>2022-09-03T13:58:15Z</time></trkpt>
      <trkpt lat="35.635738" lon="-121.209274"><time>2022-09-03T13:59:35Z</time></trkpt>
      <trkpt lat="35.628274" lon="-121.200910"><time>2022-09-03T14:00:54Z</time></trkpt>
      <trkpt lat="35.617644" lon="-121.196663"><time>2022-09-03T14:02:14Z</time></trkpt>
      <trkpt lat="35.612290" lon="-121.185556"><time>2022-09-03T14:03:34Z</time></trkpt>
      <trkpt lat="35.606486" lon="-121.175035"><time>2022-09-03T14:04:54Z</time></trkpt>
      <trkpt lat="35.603855" lon="-121.160388"><time>2022-09-03T14:06:14Z</time></trkpt>
      <trkpt lat="35.598162" lon="-121.149723"><time>2022-09-03T14:07:34Z</time></trkpt>
      <trkpt lat="35.595739" lon="-121.134805"><time>2022-09-03T14:08:54Z</time></trkpt>
      <trkpt lat="35.586985" lon="-121.128120"><time>2022-09-03T14:10:13Z</time></trkpt>
      <trkpt lat="35.577613" lon="-121.122237"><time>2022-09-03T14:11:33Z</time></trkpt>
      <trkpt lat="35.569190" lon="-121.115119"><time>2022-09-03T14:12:53Z</time></trkpt>
      <trkpt lat="35.561180" lon="-121.107466"><time>2022-09-03T14:14:13Z</time></trkpt>
      <trkpt lat="35.553290" lon="-121.099656"><time>2022-09-03T14:15:33Z</time></trkpt>
      <trkpt lat="35.549617" lon="-121.086365"><time>2022-09-03T14:16:53Z</time></trkpt>
      <trkpt lat="35.545896" lon="-121.073135"><time>2022-09-03T14:18:12Z</time></trkpt>
      <trkpt lat="35.542940" lon="-121.058912"><time>2022-09-03T14:19:32Z</time></trkpt>
      <trkpt lat="35.536852" lon="-121.048759"><time>2022-09-03T14:20:52Z</time></trkpt>
      <trkpt lat="35.529678" lon="-121.040018"><time>2022-09-03T14:22:12Z</time></trkpt>
      <trkpt lat="35.521052" lon="-121.033165"><time>2022-09-03T14:23:32Z</time></trkpt>
      <trkpt lat="35.513529" lon="-121.024878"><time>2022-09-03T14:24:52Z</time></trkpt>
      <trkpt lat="35.505770" lon="-121.016900"><time>2022-09-03T14:26:12Z</time></trkpt>
      <trkpt lat="35.497845" lon="-121.009134"><time>2022-09-03T14:27:31Z</time></trkpt>
      <trkpt lat="35.492071" lon="-120.998575"><time>2022-09-03T14:28:51Z</time></trkpt>
      <trkpt lat="35.490106" lon="-120.983062"><time>2022-09-03T14:30:11Z</time></trkpt>
      <trkpt lat="35.485070" lon="-120.971542"><time>2022-09-03T14:31:31Z</time></trkpt>
      <trkpt lat="35.479440" lon="-120.960794"><time>2022-09-03T14:32:51Z</time></trkpt>
      <trkpt lat="35.472235" lon="-120.952095"><time>2022-09-03T14:34:11Z</time></trkpt>
      <trkpt lat="35.465645" lon="-120.942595"><time>2022-09-03T14:35:31Z</time></trkpt>
      <trkpt lat="35.456672" lon="-120.936193"><time>2022-09-03T14:36:50Z</time></trkpt>
      <trkpt lat="35.447822" lon="-120.929631"><time>2022-09-03T14:38:10Z</time></trkpt>
      <trkpt lat="35.440687" lon="-120.920840"><time>2022-09-03T14:39:30Z</time></trkpt>
      <trkpt lat="35.436154" lon="-120.908666"><time>2022-09-03T14:40:50Z</time></trkpt>
      <trkpt lat="35.431447" lon="-120.896719"><time>2022-09-03T14:42:10Z</time></trkpt>
      <trkpt lat="35.429835" lon="-120.880748"><time>2022-09-03T14:43:30Z</time></trkpt>
      <trkpt lat="35.422871" lon="-120.871734"><time>2022-09-03T14:44:50Z</time></trkpt>
      <trkpt lat="35.416726" lon="-120.861657"><time>2022-09-03T14:46:09Z</time></trkpt>
      <trkpt lat="35.408707" lon="-120.854015"><time>2022-09-03T14:47:29Z</time></trkpt>
      <trkpt lat="35.399630" lon="-120.847747"><time>2022-09-03T14:48:49Z</time></trkpt>
      <trkpt lat="35.390294" lon="-120.841818"><time>2022-09-03T14:50:09Z</time></trkpt>
      <trkpt lat="35.383179" lon="-120.833001"><time>2022-09-03T14:51:29Z</time></trkpt>
      <trkpt lat="35.379167" lon="-120.820149"><time>2022-09-03T14:52:49Z</time></trkpt>
      <trkpt lat="35.374211" lon="-120.808525"><time>2022-09-03T14:54:08Z</time></trkpt>
      <trkpt lat="35.372493" lon="-120.792693"><time>2022-09-03T14:55:28Z</time></trkpt>
      <trkpt lat="35.365883" lon="-120.783219"><time>2022-09-03T14:56:48Z</time></trkpt>
      <trkpt lat="35.360323" lon="-120.772380"><time>2022-09-03T14:58:08Z</time></trkpt>
      <trkpt lat="35.349988" lon="-120.767749"><time>2022-09-03T14:59:28Z</time></trkpt>
      <trkpt lat="35.341249" lon="-120.761043"><time>2022-09-03T15:00:48Z</time></trkpt>
      <trkpt lat="35.332622" lon="-120.754191"><time>2022-09-03T15:02:08Z</time></trkpt>
      <trkpt lat="35.326592" lon="-120.743964"><time>2022-09-03T15:03:27Z</time></trkpt>
      <trkpt lat="35.321135" lon="-120.732991"><time>2022-09-03T15:04:47Z</time></trkpt>
      <trkpt lat="35.316911" lon="-120.720416"><time>2022-09-03T15:06:07Z</time></trkpt>
      <trkpt lat="35.315204" lon="-120.704568"><time>2022-09-03T15:07:27Z</time></trkpt>
      <trkpt lat="35.308667" lon="-120.694999"><time>2022-09-03T15:08:47Z</time></trkpt>
      <trkpt lat="35.301467" lon="-120.686293"><time>2022-09-03T15:10:07Z</time></trkpt>
      <trkpt lat="35.293026" lon="-120.679200"><time>2022-09-03T15:11:27Z</time></trkpt>
      <trkpt lat="35.284499" lon="-120.672218"><time>2022-09-03T15:12:46Z</time></trkpt>
      <trkpt lat="35.279785" lon="-120.660279"><time>2022-09-03T15:14:06Z</time></trkpt>
      <trkpt lat="35.268655" lon="-120.640115"><time>2022-09-03T15:15:26Z</time></trkpt>
      <trkpt lat="35.255753" lon="-120.622255"><time>2022-09-03T15:16:46Z</time></trkpt>
      <trkpt lat="35.240040" lon="-120.608048"><time>2022-09-03T15:18:06Z</time></trkpt>
      <trkpt lat="35.225293" lon="-120.592586"><time>2022-09-03T15:19:26Z</time></trkpt>
      <trkpt lat="35.207994" lon="-120.580442"><time>2022-09-03T15:20:46Z</time></trkpt>
      <trkpt lat="35.189185" lon="-120.570260"><time>2022-09-03T15:22:05Z</time></trkpt>
      <trkpt lat="35.176721" lon="-120.551830"><time>2022-09-03T15:23:25Z</time></trkpt>
      <trkpt lat="35.164026" lon="-120.533700"><time>2022-09-03T15:24:45Z</time></trkpt>
      <trkpt lat="35.151919" lon="-120.514805"><time>2022-09-03T15:26:05Z</time></trkpt>
      <trkpt lat="35.138216" lon="-120.497986"><time>2022-09-03T15:27:25Z</time></trkpt>
      <trkpt lat="35.127280" lon="-120.477569"><time>2022-09-03T15:28:45Z</time></trkpt>
      <trkpt lat="35.111818" lon="-120.463037"><time>2022-09-03T15:30:04Z</time></trkpt>
      <trkpt lat="35.093488" lon="-120.452232"><time>2022-09-03T15:31:24Z</time></trkpt>
      <trkpt lat="35.076402" lon="-120.439811"><time>2022-09-03T15:32:44Z</time></trkpt>
      <trkpt lat="35.062837" lon="-120.422813"><time>2022-09-03T15:34:04Z</time></trkpt>
      <trkpt lat="35.047218" lon="-120.408483"><time>2022-09-03T15:35:24Z</time></trkpt>
      <trkpt lat="35.033111" lon="-120.392189"><time>2022-09-03T15:36:44Z</time></trkpt>
      <trkpt lat="35.020939" lon="-120.373379"><time>2022-09-03T15:38:04Z</time></trkpt>
      <trkpt lat="35.009273" lon="-120.353912"><time>2022-09-03T15:39:23Z</time></trkpt>
      <trkpt lat="34.996497" lon="-120.335888"><time>2022-09-03T15:40:43Z</time></trkpt>
      <trkpt lat="34.983212" lon="-120.318525"><time>2022-09-03T15:42:03Z</time></trkpt>
      <trkpt lat="34.965418" lon="-120.307023"><time>2022-09-03T15:43:23Z</time></trkpt>
      <trkpt lat="34.947763" lon="-120.295341"><time>2022-09-03T15:44:43Z</time></trkpt>
      <trkpt lat="34.933662" lon="-120.279039"><time>2022-09-03T15:46:03Z</time></trkpt>
      <trkpt lat="34.918639" lon="-120.263936"><time>2022-09-03T15:47:23Z</time></trkpt>
      <trkpt lat="34.903918" lon="-120.248440"><time>2022-09-03T15:48:42Z</time></trkpt>
      <trkpt lat="34.894375" lon="-120.226212"><time>2022-09-03T15:50:02Z</time></trkpt>
      <trkpt lat="34.881720" lon="-120.208031"><time>2022-09-03T15:51:22Z</time></trkpt>
      <trkpt lat="34.869148" lon="-120.189741"><time>2022-09-03T15:52:42Z</time></trkpt>
      <trkpt lat="34.853852" lon="-120.174992"><time>2022-09-03T15:54:02Z</time></trkpt>
      <trkpt lat="34.837997" lon="-120.160971"><time>2022-09-03T15:55:22Z</time></trkpt>
      <trkpt lat="34.820607" lon="-120.148944"><time>2022-09-03T15:56:42Z</time></trkpt>
      <trkpt lat="34.804436" lon="-120.135334"><time>2022-09-03T15:58:01Z</time></trkpt>
      <trkpt lat="34.787872" lon="-120.122234"><time>2022-09-03T15:59:21Z</time></trkpt>
      <trkpt lat="34.776546" lon="-120.102323"><time>2022-09-03T16:00:41Z</time></trkpt>
      <trkpt lat="34.764361" lon="-120.083530"><time>2022-09-03T16:02:01Z</time></trkpt>
      <trkpt lat="34.753169" lon="-120.063447"><time>2022-09-03T16:03:21Z</time></trkpt>
      <trkpt lat="34.739128" lon="-120.047067"><time>2022-09-03T16:04:41Z</time></trkpt>
      <trkpt lat="34.725457" lon="-120.030205"><time>2022-09-03T16:06:00Z</time></trkpt>
      <trkpt lat="34.707915" lon="-120.018377"><time>2022-09-03T16:07:20Z</time></trkpt>
      <trkpt lat="34.689975" lon="-120.007066"><time>2022-09-03T16:08:40Z</time></trkpt>
      <trkpt lat="34.673592" lon="-119.993730"><time>2022-09-03T16:10:00Z</time></trkpt>
      <trkpt lat="34.658714" lon="-119.978439"><time>2022-09-03T16:11:20Z</time></trkpt>
      <trkpt lat="34.647002" lon="-119.959031"><time>2022-09-03T16:12:40Z</time></trkpt>
      <trkpt lat="34.634011" lon="-119.941285"><time>2022-09-03T16:14:00Z</time></trkpt>
      <trkpt lat="34.623393" lon="-119.920456"><time>2022-09-03T16:15:19Z</time></trkpt>
      <trkpt lat="34.609252" lon="-119.904206"><time>2022-09-03T16:16:39Z</time></trkpt>
      <trkpt lat="34.595245" lon="-119.887781"><time>2022-09-03T16:17:59Z</time></trkpt>
      <trkpt lat="34.578680" lon="-119.874683"><time>2022-09-03T16:19:19Z</time></trkpt>
      <trkpt lat="34.561739" lon="-119.862072"><time>2022-09-03T16:20:39Z</time></trkpt>
      <trkpt lat="34.546450" lon="-119.847315"><time>2022-09-03T16:21:59Z</time></trkpt>
      <trkpt lat="34.529333" lon="-119.834933"><time>2022-09-03T16:23:19Z</time></trkpt>
      <trkpt lat="34.519100" lon="-119.813603"><time>2022-09-03T16:24:38Z</time></trkpt>
      <trkpt lat="34.506307" lon="-119.795601"><time>2022-09-03T16:25:58Z</time></trkpt>
      <trkpt lat="34.494726" lon="-119.776023"><time>2022-09-03T16:27:18Z</time></trkpt>
      <trkpt lat="34.481819" lon="-119.758168"><time>2022-09-03T16:28:38Z</time></trkpt>
      <trkpt lat="34.467254" lon="-119.742470"><time>2022-09-03T16:29:58Z</time></trkpt>
      <trkpt lat="34.449245" lon="-119.731248"><time>2022-09-03T16:31:18Z</time></trkpt>
      <trkpt lat="34.432317" lon="-119.718622"><time>2022-09-03T16:32:38Z</time></trkpt>
      <trkpt lat="34.421382" lon="-119.698204"><time>2022-09-03T16:33:57Z</time></trkpt>
      <trkpt lat="34.414803" lon="-119.682973"><time>2022-09-03T16:35:17Z</time></trkpt>
      <trkpt lat="34.411353" lon="-119.663675"><time>2022-09-03T16:36:37Z</time></trkpt>
      <trkpt lat="34.404361" lon="-119.648980"><time>2022-09-03T16:37:57Z</time></trkpt>
      <trkpt lat="34.393926" lon="-119.638763"><time>2022-09-03T16:39:17Z</time></trkpt>
      <trkpt lat="34.386426" lon="-119.624730"><time>2022-09-03T16:40:37Z</time></trkpt>
      <trkpt lat="34.378061" lon="-119.611820"><time>2022-09-03T16:41:57Z</time></trkpt>
      <trkpt lat="34.371865" lon="-119.596093"><time>2022-09-03T16:43:16Z</time></trkpt>
      <trkpt lat="34.364966" lon="-119.581277"><time>2022-09-03T16:44:36Z</time></trkpt>
      <trkpt lat="34.363012" lon="-119.560034"><time>2022-09-03T16:45:56Z</time></trkpt>
      <trkpt lat="34.357660" lon="-119.543209"><time>2022-09-03T16:47:16Z</time></trkpt>
      <trkpt lat="34.352407" lon="-119.526255"><time>2022-09-03T16:48:36Z</time></trkpt>
      <trkpt lat="34.346611" lon="-119.510006"><time>2022-09-03T16:49:56Z</time></trkpt>
      <trkpt lat="34.335378" lon="-119.500825"><time>2022-09-03T16:51:15Z</time></trkpt>
      <trkpt lat="34.328189" lon="-119.486388"><time>2022-09-03T16:52:35Z</time></trkpt>
      <trkpt lat="34.319357" lon="-119.474086"><time>2022-09-03T16:53:55Z</time></trkpt>
      <trkpt lat="34.311599" lon="-119.460388"><time>2022-09-03T16:55:15Z</time></trkpt>
      <trkpt lat="34.308113" lon="-119.441137"><time>2022-09-03T16:56:35Z</time></trkpt>
      <trkpt lat="34.302733" lon="-119.424347"><time>2022-09-03T16:57:55Z</time></trkpt>
      <trkpt lat="34.299102" lon="-119.405284"><time>2022-09-03T16:59:15Z</time></trkpt>
      <trkpt lat="34.294039" lon="-119.388083"><time>2022-09-03T17:00:34Z</time></trkpt>
      <trkpt lat="34.287695" lon="-119.372547"><time>2022-09-03T17:01:54Z</time></trkpt>
      <trkpt lat="34.277345" lon="-119.362219"><time>2022-09-03T17:03:14Z</time></trkpt>
      <trkpt lat="34.268777" lon="-119.349573"><time>2022-09-03T17:04:34Z</time></trkpt>
      <trkpt lat="34.260217" lon="-119.336918"><time>2022-09-03T17:05:54Z</time></trkpt>
      <trkpt lat="34.253760" lon="-119.321529"><time>2022-09-03T17:07:14Z</time></trkpt>
      <trkpt lat="34.249561" lon="-119.303204"><time>2022-09-03T17:08:34Z</time></trkpt>
      <trkpt lat="34.244080" lon="-119.286546"><time>2022-09-03T17:09:53Z</time></trkpt>
      <trkpt lat="34.241711" lon="-119.265842"><time>2022-09-03T17:11:13Z</time></trkpt>
      <trkpt lat="34.235182" lon="-119.250546"><time>2022-09-03T17:12:33Z</time></trkpt>
      <trkpt lat="34.228358" lon="-119.235635"><time>2022-09-03T17:13:53Z</time></trkpt>
      <trkpt lat="34.218963" lon="-119.224064"><time>2022-09-03T17:15:13Z</time></trkpt>
      <trkpt lat="34.210429" lon="-119.211376"><time>2022-09-03T17:16:33Z</time></trkpt>
      <trkpt lat="34.203344" lon="-119.196802"><time>2022-09-03T17:17:53Z</time></trkpt>
      <trkpt lat="34.195576" lon="-119.183117"><time>2022-09-03T17:19:12Z</time></trkpt>
      <trkpt lat="34.191010" lon="-119.165270"><time>2022-09-03T17:20:32Z</time></trkpt>
      <trkpt lat="34.185762" lon="-119.148310"><time>2022-09-03T17:21:52Z</time></trkpt>
      <trkpt lat="34.181728" lon="-119.129770"><time>2022-09-03T17:23:12Z</time></trkpt>
      <trkpt lat="34.176376" lon="-119.112944"><time>2022-09-03T17:24:32Z</time></trkpt>
      <trkpt lat="34.170069" lon="-119.097361"><time>2022-09-03T17:25:52Z</time></trkpt>
      <trkpt lat="34.161488" lon="-119.084732"><time>2022-09-03T17:27:11Z</time></trkpt>
      <trkpt lat="34.152701" lon="-119.072372"><time>2022-09-03T17:28:31Z</time></trkpt>
      <trkpt lat="34.142010" lon="-119.062487"><time>2022-09-03T17:29:51Z</time></trkpt>
      <trkpt lat="34.137297" lon="-119.044830"><time>2022-09-03T17:31:11Z</time></trkpt>
      <trkpt lat="34.132846" lon="-119.026834"><time>2022-09-03T17:32:31Z</time></trkpt>
      <trkpt lat="34.127972" lon="-119.009386"><time>2022-09-03T17:33:51Z</time></trkpt>
      <trkpt lat="34.122474" lon="-118.992751"><time>2022-09-03T17:35:11Z</time></trkpt>
      <trkpt lat="34.117886" lon="-118.974931"><time>2022-09-03T17:36:30Z</time></trkpt>
      <trkpt lat="34.109790" lon="-118.961673"><time>2022-09-03T17:37:50Z</time></trkpt>
      <trkpt lat="34.101589" lon="-118.948552"><time>2022-09-03T17:39:10Z</time></trkpt>
      <trkpt lat="34.094552" lon="-118.933916"><time>2022-09-03T17:40:30Z</time></trkpt>
      <trkpt lat="34.085187" lon="-118.922306"><time>2022-09-03T17:41:50Z</time></trkpt>
      <trkpt lat="34.078621" lon="-118.907060"><time>2022-09-03T17:43:10Z</time></trkpt>
      <trkpt lat="34.074111" lon="-118.889138"><time>2022-09-03T17:44:30Z</time></trkpt>
      <trkpt lat="34.070632" lon="-118.869878"><time>2022-09-03T17:45:49Z</time></trkpt>
      <trkpt lat="34.065707" lon="-118.852497"><time>2022-09-03T17:47:09Z</time></trkpt>
      <trkpt lat="34.060340" lon="-118.835691"><time>2022-09-03T17:48:29Z</time></trkpt>
      <trkpt lat="34.053112" lon="-118.821304"><time>2022-09-03T17:49:49Z</time></trkpt>
      <trkpt lat="34.044543" lon="-118.808661"><time>2022-09-03T17:51:09Z</time></trkpt>
      <trkpt lat="34.035016" lon="-118.797263"><time>2022-09-03T17:52:29Z</time></trkpt>
      <trkpt lat="34.030543" lon="-118.779294"><time>2022-09-03T17:53:49Z</time></trkpt>
      <trkpt lat="34.027381" lon="-118.767938"><time>2022-09-03T17:55:08Z</time></trkpt>
      <trkpt lat="34.025776" lon="-118.754558"><time>2022-09-03T17:56:28Z</time></trkpt>
      <trkpt lat="34.020326" lon="-118.746176"><time>2022-09-03T17:57:48Z</time></trkpt>
      <trkpt lat="34.014795" lon="-118.737900"><time>2022-09-03T17:59:08Z</time></trkpt>
      <trkpt lat="34.005734" lon="-118.734212"><time>2022-09-03T18:00:28Z</time></trkpt>
      <trkpt lat="33.999558" lon="-118.726775"><time>2022-09-03T18:01:48Z</time></trkpt>
      <trkpt lat="33.994348" lon="-118.718081"><time>2022-09-03T18:03:07Z</time></trkpt>
      <trkpt lat="33.993632" lon="-118.703545"><time>2022-09-03T18:04:27Z</time></trkpt>
      <trkpt lat="33.992310" lon="-118.689798"><time>2022-09-03T18:05:47Z</time></trkpt>
      <trkpt lat="33.989762" lon="-118.677643"><time>2022-09-03T18:07:07Z</time></trkpt>
      <trkpt lat="33.985893" lon="-118.667206"><time>2022-09-03T18:08:27Z</time></trkpt>
      <trkpt lat="33.982386" lon="-118.656298"><time>2022-09-03T18:09:47Z</time></trkpt>
      <trkpt lat="33.975803" lon="-118.649390"><time>2022-09-03T18:11:07Z</time></trkpt>
      <trkpt lat="33.968054" lon="-118.643997"><time>2022-09-03T18:12:26Z</time></trkpt>
      <trkpt lat="33.960755" lon="-118.638018"><time>2022-09-03T18:13:46Z</time></trkpt>
      <trkpt lat="33.956156" lon="-118.628530"><time>2022-09-03T18:15:06Z</time></trkpt>
      <trkpt lat="33.953626" lon="-118.616353"><time>2022-09-03T18:16:26Z</time></trkpt>
      <trkpt lat="33.951590" lon="-118.603533"><time>2022-09-03T18:17:46Z</time></trkpt>
      <trkpt lat="33.950137" lon="-118.589955"><time>2022-09-03T18:19:06Z</time></trkpt>
      <trkpt lat="33.947721" lon="-118.577629"><time>2022-09-03T18:20:26Z</time></trkpt>
      <trkpt lat="33.943685" lon="-118.567410"><time>2022-09-03T18:21:45Z</time></trkpt>
      <trkpt lat="33.934543" lon="-118.563827"><time>2022-09-03T18:23:05Z</time></trkpt>
      <trkpt lat="33.929008" lon="-118.555557"><time>2022-09-03T18:24:25Z</time></trkpt>
      <trkpt lat="33.921068" lon="-118.550412"><time>2022-09-03T18:25:45Z</time></trkpt>
      <trkpt lat="33.916621" lon="-118.540726"><time>2022-09-03T18:27:05Z</time></trkpt>
      <trkpt lat="33.915845" lon="-118.526268"><time>2022-09-03T18:28:25Z</time></trkpt>
      <trkpt lat="33.913428" lon="-118.513944"><time>2022-09-03T18:29:45Z</time></trkpt>
      <trkpt lat="33.912650" lon="-118.499488"><time>2022-09-03T18:31:04Z</time></trkpt>
      <trkpt lat="33.908144" lon="-118.489880"><time>2022-09-03T18:32:24Z</time></trkpt>
      <trkpt lat="33.901889" lon="-118.482544"><time>2022-09-03T18:33:44Z</time></trkpt>
      <trkpt lat="33.896476" lon="-118.474114"><time>2022-09-03T18:35:04Z</time></trkpt>
      <trkpt lat="33.890019" lon="-118.467042"><time>2022-09-03T18:36:24Z</time></trkpt>
      <trkpt lat="33.884732" lon="-118.458448"><time>2022-09-03T18:37:44Z</time></trkpt>
      <trkpt lat="33.880222" lon="-118.448845"><time>2022-09-03T18:39:03Z</time></trkpt>
      <trkpt lat="33.875894" lon="-118.439004"><time>2022-09-03T18:40:23Z</time></trkpt>
      <trkpt lat="33.874006" lon="-118.425992"><time>2022-09-03T18:41:43Z</time></trkpt>
      <trkpt lat="33.871249" lon="-118.414109"><time>2022-09-03T18:43:03Z</time></trkpt>
      <trkpt lat="33.869745" lon="-118.400598"><time>2022-09-03T18:44:23Z</time></trkpt>
      <trkpt lat="33.863446" lon="-118.393320"><time>2022-09-03T18:45:43Z</time></trkpt>
      <trkpt lat="33.856706" lon="-118.386616"><time>2022-09-03T18:47:03Z</time></trkpt>
      <trkpt lat="33.849228" lon="-118.380870"><time>2022-09-03T18:48:22Z</time></trkpt>
      <trkpt lat="33.842904" lon="-118.373625"><time>2022-09-03T18:49:42Z</time></trkpt>
      <trkpt lat="33.840347" lon="-118.361482"><time>2022-09-03T18:51:02Z</time></trkpt>
      <trkpt lat="33.835887" lon="-118.351813"><time>2022-09-03T18:52:22Z</time></trkpt>
      <trkpt lat="33.836735" lon="-118.335245"><time>2022-09-03T18:53:42Z</time></trkpt>
      <trkpt lat="33.832256" lon="-118.325601"><time>2022-09-03T18:55:02Z</time></trkpt>
      <trkpt lat="33.831427" lon="-118.311212"><time>2022-09-03T18:56:22Z</time></trkpt>
      <trkpt lat="33.824158" lon="-118.305195"><time>2022-09-03T18:57:41Z</time></trkpt>
      <trkpt lat="33.817239" lon="-118.298723"><time>2022-09-03T18:59:01Z</time></trkpt>
      <trkpt lat="33.812279" lon="-118.289704"><time>2022-09-03T19:00:21Z</time></trkpt>
      <trkpt lat="33.804588" lon="-118.284235"><time>2022-09-03T19:01:41Z</time></trkpt>
      <trkpt lat="33.801514" lon="-118.272765"><time>2022-09-03T19:03:01Z</time></trkpt>
      <trkpt lat="33.797140" lon="-118.262985"><time>2022-09-03T19:04:21Z</time></trkpt>
      <trkpt lat="33.795053" lon="-118.250231"><time>2022-09-03T19:05:41Z</time></trkpt>
      <trkpt lat="33.795361" lon="-118.234365"><time>2022-09-03T19:07:00Z</time></trkpt>
      <trkpt lat="33.791964" lon="-118.223313"><time>2022-09-03T19:08:20Z</time></trkpt>
      <trkpt lat="33.787298" lon="-118.213912"><time>2022-09-03T19:09:40Z</time></trkpt>
      <trkpt lat="33.780309" lon="-118.207531"><time>2022-09-03T19:11:00Z</time></trkpt>
      <trkpt lat="33.771313" lon="-118.203760"><time>2022-09-03T19:12:20Z</time></trkpt>
      <trkpt lat="33.770000" lon="-118.190000"><time>2022-09-03T19:13:40Z</time></trkpt>
    </trkseg>
  </trk>
</gpx>
